Name,StopId,StreetNumber,StreetName,SuburbId,StateId,CountryId,PostCode,EntranceType,Latitude,Longitude,ExitNumber
Macqueen,2,121,MacQueen Street,15,5,2,2336,Ramp,-32.166886,150.891957,NULL
Macqueen,1,121,MacQueen Street,15,5,2,2336,Stairs,-32.166899,150.891975,NULL
Park,6,9,Park Avenue,38,5,2,2289,Path,-32.933827,151.720236,NULL
Park,3,7,Park Avenue,38,5,2,2289,Path,-32.933705,151.720451,NULL
Princes,8,13,Burroo Street,89,5,2,2527,Ramp,-34.563507,150.799189,NULL
Burroo,7,207-213,Princes Highway,89,5,2,2527,Ramp,-34.563409,150.799390,NULL
Princes,10,207,Princes Highway,89,5,2,2527,Ramp,-34.562782,150.798418,NULL
Princes,9,207,Princes Highway,89,5,2,2527,Stairs,-34.562939,150.798574,NULL
O'Riordan,340,318B,Botany Road,106,5,2,2015,Escalators,-33.906278,151.202693,NULL
O'Riordan,341,312,Botany Road,106,5,2,2015,Lift,-33.906214,151.202540,NULL
Railway,14,470,Railway Parade,130,5,2,2218,Lift,-33.969877,151.114435,NULL
Railway,11,466,Railway Parade,130,5,2,2218,Ramp,-33.969968,151.114944,NULL
Railway,15,472,Railway Parade,130,5,2,2218,Ramp,-33.969886,151.114240,NULL
Bayview,765,31,Bayview Crescent,224,5,2,2038,Ramp,-33.871953,151.172914,NULL
Bayview,764,31,Bayview Crescent,224,5,2,2038,Ramp,-33.871857,151.172948,NULL
The Crescent,766,31,Bayview Crescent,224,5,2,2038,Stairs,-33.871748,151.172869,NULL
Lake,211,460,B53,286,5,2,2284,Stairs,-32.942467,151.624430,NULL
Creek Reserve,212,460,Lake Road,286,5,2,2284,Path,-32.942875,151.623812,NULL
Firth,20,NULL,NULL,302,5,2,2205,Lift,-33.936774,151.146860,NULL
Firth,21,NULL,NULL,302,5,2,2205,Stairs,-33.936717,151.146850,NULL
The Arcade,19,1,The Arcade,302,5,2,2205,Lift,-33.936963,151.147422,NULL
The Arcade,18,1,The Arcade,302,5,2,2205,Stairs,-33.936924,151.147427,NULL
Hampden,23,88A,Hampden Road,314,5,2,2064,Lift,-33.808759,151.184720,NULL
Hampden,24,100,Hampden Road,314,5,2,2064,Stairs,-33.808540,151.184428,NULL
Valetta,22,7,Wilkes Avenue,314,5,2,2064,Ramp,-33.808233,151.184741,NULL
Brown,28,NULL,NULL,334,5,2,2131,Stairs,-33.887775,151.125539,NULL
Station,26,1A,Charlotte Street,334,5,2,2131,Stairs,-33.887396,151.125802,NULL
Brown,27,2,Hercules Street,334,5,2,2131,Lift,-33.887891,151.125797,NULL
Station,25,7,Station Street,334,5,2,2131,Lift,-33.887442,151.125958,NULL
Pacific,30,381,B83,350,5,2,2077,Ramp,-33.688489,151.107999,NULL
Haldane,29,13,Haldane Street,350,5,2,2077,Path,-33.688691,151.108265,NULL
Rawson,31,NULL,NULL,365,5,2,2144,Ramp,-33.849287,151.033291,NULL
South,33,3,South Parade,365,5,2,2144,Ramp,-33.849463,151.032720,NULL
South,32,96-98,South Parade,365,5,2,2144,Stairs,-33.849663,151.032919,NULL
Railway,35,NULL,NULL,377,5,2,2515,Path,-34.306501,150.928907,NULL
Gilchrist,34,67,Moore Street,377,5,2,2515,Path,-34.306520,150.929351,NULL
Adelaide,37,154,Wilton Road,406,5,2,2283,Path,-33.012916,151.542132,NULL
Wilton,38,154,Wilton Road,406,5,2,2283,Ramp,-33.013109,151.542074,NULL
Adelaide,36,154,Wilton Road,406,5,2,2283,Ramp,-33.012916,151.542158,NULL
Hattersley,39,80,Hattersley Street,578,5,2,2216,Ramp,-33.944900,151.140849,NULL
Railway,40,17,Railway Street,578,5,2,2216,Ramp,-33.944791,151.140498,NULL
Railway,41,18,Railway Street,578,5,2,2216,Stairs,-33.944883,151.140448,NULL
Bankstown City,44,NULL,NULL,584,5,2,2200,Path,-33.917788,151.033762,NULL
Bankstown City,43,139,Bankstown City Plaza,584,5,2,2200,Path,-33.918052,151.034110,NULL
North,42,80A,North Terrace,584,5,2,2200,Ramp,-33.917686,151.034269,NULL
Hartill Law,45,16,Hartill-Law Avenue,618,5,2,2207,Stairs,-33.931378,151.125379,NULL
Great Southern,46,227,Great Southern Road,626,5,2,2574,Path,-34.290978,150.580175,NULL
Great Southern,47,227,Great Southern Road,626,5,2,2574,Ramp,-34.290984,150.580150,NULL
Railside,49,96,Old Hume Highway,626,5,2,2574,Path,-34.291044,150.580007,NULL
Railside,48,96,Old Hume Highway,626,5,2,2574,Ramp,-34.291007,150.580020,NULL
Wongala,52,2A,Hannah Street,797,5,2,2119,Path,-33.749233,151.066224,NULL
Sutherland,50,17,Wongala Crescent,797,5,2,2119,Path,-33.749216,151.066733,NULL
Wongala,51,17,Wongala Crescent,797,5,2,2119,Path,-33.749044,151.066337,NULL
Sandham,53,17,Sandham Road,840,5,2,2786,Ramp,-33.506165,150.279361,NULL
Chiefley,54,17,Sandham Road,840,5,2,2786,Stairs,-33.506234,150.279079,NULL
Bellambi,55,16,Union Street,846,5,2,2518,Ramp,-34.362612,150.910131,NULL
Burwood,56,NULL,NULL,882,5,2,2192,Lift,-33.917248,151.088337,NULL
Burwood,57,365,Burwood Road,882,5,2,2192,Stairs,-33.917227,151.088324,NULL
Campbell,58,NULL,NULL,947,5,2,2141,Path,-33.871977,151.032828,NULL
Woodburn,59,NULL,NULL,947,5,2,2141,Path,-33.871393,151.032327,NULL
Lawson,60,NULL,NULL,951,5,2,2322,Stairs,-32.799407,151.658578,NULL
Addison,62,2,Milton Street,951,5,2,2322,Lift,-32.799471,151.658161,NULL
Addison,61,2,Milton Street,951,5,2,2322,Stairs,-32.799583,151.658334,NULL
Pacific,63,NULL,Pacific Highway,962,5,2,2081,Ramp,-33.622914,151.153563,NULL
Station,65,5,Station Road,982,5,2,2535,Path,-34.780273,150.696723,NULL
King Georges,67,480,A3,1012,5,2,2209,Lift,-33.949130,151.080829,NULL
King Georges,66,482,A3,1012,5,2,2209,Stairs,-33.949140,151.080867,NULL
King Georges,68,409-413,King Georges Road,1012,5,2,2209,Stairs,-33.949262,151.080478,NULL
Bexley,69,2,Shaw Street,1016,5,2,2207,Stairs,-33.937481,151.113926,NULL
Avalon,70,4,Teresa Street,1122,5,2,2143,Stairs,-33.892536,151.024313,NULL
Great Western,71,264,A32,1159,5,2,2785,Stairs,-33.633972,150.284590,NULL
Station,72,264,Great Western Highway,1159,5,2,2785,Stairs,-33.634005,150.284253,NULL
First,75,40,First Avenue,1169,5,2,2148,Lift,-33.767754,150.907961,3
First,73,42,First Avenue,1169,5,2,2148,Stairs,-33.767777,150.908019,3
First,74,40,First Avenue,1169,5,2,2148,Stairs,-33.767733,150.907968,3
Jim Simpson,77,14,Main Street,1169,5,2,2148,Escalators,-33.768967,150.907296,2
Patrick,79,14,Main Street,1169,5,2,2148,Lift,-33.768899,150.907082,1
Old Richmond,78,9b,Main Street,1169,5,2,2148,Lift,-33.767829,150.907147,4
Patrick,80,10,Main Street,1169,5,2,2148,Stairs,-33.769033,150.906989,1
Jim Simpson,76,14,Main Street,1169,5,2,2148,Stairs,-33.768941,150.907305,2
Old Richmond,81,9b,Main Street,1169,5,2,2148,Stairs,-33.767798,150.906924,4
Wilson,82,NULL,NULL,1197,5,2,2774,Lift,-33.743699,150.609962,NULL
Great Western,86,NULL,NULL,1197,5,2,2774,Stairs,-33.744049,150.609328,NULL
Great Western,85,144,Great Western Highway,1197,5,2,2774,Ramp,-33.744117,150.609388,NULL
Great Western,84,140U,Great Western Highway,1197,5,2,2774,Stairs,-33.743803,150.609686,NULL
Wilson,83,NULL,Wilson Way,1197,5,2,2774,Stairs,-33.743662,150.609805,NULL
Meroo,87,47,Meroo Street,1300,5,2,2541,Path,-34.853744,150.609770,NULL
Princes,89,NULL,Princes Highway,1306,5,2,2533,Ramp,-34.658855,150.853756,NULL
Princes,88,NULL,Princes Highway,1306,5,2,2533,Stairs,-34.658686,150.853768,NULL
Grafton,92,NULL,NULL,1320,5,2,2022,Stairs,-33.890994,151.248208,NULL
Rowe,91,422,Oxford Street,1320,5,2,2022,Ramp,-33.891869,151.248366,NULL
Grafton,90,422,Oxford Street,1320,5,2,2022,Stairs,-33.891030,151.248596,NULL
Station,94,105,Toronto Road,1403,5,2,2284,Ramp,-32.971900,151.604790,NULL
Fourth,93,105,Toronto Road,1403,5,2,2284,Ramp,-32.971699,151.605168,NULL
Kirkham,96,69,Kirkham Road,1511,5,2,2576,Path,-34.477637,150.416797,NULL
Wingercarribee,98,25-29,Station Street,1511,5,2,2576,Lift,-34.478370,150.416576,NULL
Wingercarribee,99,25-29,Station Street,1511,5,2,2576,Lift,-34.478277,150.416394,NULL
Station,95,8,Station Street,1511,5,2,2576,Path,-34.477924,150.416974,NULL
Wingercarribee,97,25-29,Station Street,1511,5,2,2576,Stairs,-34.478416,150.416594,NULL
Kirkham,100,25-29,Station Street,1511,5,2,2576,Stairs,-34.478222,150.416379,NULL
Railway,102,52,Russell Street,1566,5,2,2335,Ramp,-32.662092,151.345535,NULL
Railway,101,2,Station Street,1566,5,2,2335,Ramp,-32.662210,151.345932,NULL
Graham,105,NULL,NULL,1670,5,2,2292,Ramp,-32.922891,151.735065,NULL
Brown,106,NULL,NULL,1670,5,2,2292,Stairs,-32.922368,151.734946,NULL
Brown,104,142,Broadmeadow Road,1670,5,2,2292,Ramp,-32.922164,151.735221,NULL
Graham,103,33,Graham Road,1670,5,2,2292,Stairs,-32.922692,151.735412,NULL
St James,5,2a,Saint James Road,1670,5,2,2292,Ramp,-32.933401,151.720347,NULL
St James,4,2a,Saint James Road,1670,5,2,2292,Stairs,-32.933413,151.720363,NULL
Danger,361,8,Dangar Road,1710,5,2,2083,Stairs,-33.547101,151.226598,NULL
Danger,360,10,Dangar Road,1710,5,2,2083,Stairs,-33.547008,151.226715,NULL
Railway,108,NULL,NULL,1843,5,2,2784,Stairs,-33.723167,150.414989,NULL
Great Western,107,352,A32,1843,5,2,2784,Ramp,-33.723519,150.415201,NULL
Park,109,74A,Park Road,1861,5,2,2516,Lift,-34.333844,150.915069,NULL
Park,110,74A,Park Road,1861,5,2,2516,Lift,-34.333820,150.914931,NULL
Railway,112,41,Park Road,1861,5,2,2516,Path,-34.334339,150.914688,NULL
Franklin,111,41,Park Road,1861,5,2,2516,Path,-34.334286,150.914914,NULL
Church,114,1,Church Street,1902,5,2,2578,Path,-34.656049,150.299572,NULL
Erith,113,9,Railway Avenue,1902,5,2,2578,Ramp,-34.655752,150.299740,NULL
Burradoo,115,123,Burradoo Road,2003,5,2,2576,Path,-34.494186,150.398129,NULL
Burradoo,116,123,Burradoo Road,2003,5,2,2576,Ramp,-34.494185,150.397858,NULL
Burwood,118,212,Burwood Road,2034,5,2,2134,Path,-33.877188,151.103824,NULL
Burwood,117,40,Deane Street,2034,5,2,2134,Stairs,-33.877045,151.103852,NULL
Railway,123,NULL,NULL,2088,5,2,2166,Path,-33.895102,150.938659,NULL
Broomfield,119,86,Broomfield Street,2088,5,2,2166,Lift,-33.894642,150.939104,NULL
Broomfield,120,86A,Broomfield Street,2088,5,2,2166,Stairs,-33.894806,150.939048,NULL
Railway,121,193,Railway Parade,2088,5,2,2166,Lift,-33.894598,150.938813,NULL
Railway,122,201,Railway Parade,2088,5,2,2166,Ramp,-33.894942,150.938732,NULL
Ring,903,NULL,Unnamed Road,2137,5,2,2308,Ramp,-32.888486,151.709521,NULL
Grand,124,181,James Ruse Drive,2191,5,2,2142,Ramp,-33.819181,151.024141,NULL
Hurley,130,2,Farrow Road,2214,5,2,2560,Lift,-34.063200,150.814308,NULL
Farrow,131,NULL,Farrow Road,2214,5,2,2560,Stairs,-34.063323,150.814021,NULL
Farrow,129,2,Farrow Road,2214,5,2,2560,Stairs,-34.063024,150.814409,NULL
Hurley,126,NULL,Hurley Street,2214,5,2,2560,Lift,-34.063591,150.814739,NULL
Hurley,127,NULL,Hurley Street,2214,5,2,2560,Path,-34.063699,150.814622,NULL
Hurley,128,NULL,Hurley Street,2214,5,2,2560,Stairs,-34.063679,150.814614,NULL
Menangle,499,NULL,Menangle Road,2214,5,2,2560,Lift,-34.072492,150.797478,NULL
Menangle,500,NULL,Menangle Road,2214,5,2,2560,Lift,-34.072217,150.797388,NULL
Menangle,501,NULL,Menangle Road,2214,5,2,2560,Stairs,-34.072553,150.797159,NULL
Menangle,502,NULL,Menangle Road,2214,5,2,2560,Stairs,-34.072266,150.797075,NULL
Railway,125,95,Railway Street,2214,5,2,2560,Ramp,-34.064189,150.814813,NULL
Beamish,133,NULL,NULL,2218,5,2,2194,Ramp,-33.910392,151.103557,NULL
Beamish,132,182,Beamish Street,2218,5,2,2194,Ramp,-33.910495,151.103574,NULL
First,135,12,First Avenue,2240,5,2,2166,Ramp,-33.887462,150.943629,NULL
First,134,12A,First Avenue,2240,5,2,2166,Stairs,-33.887443,150.943689,NULL
Railway,137,115,Railway Parade,2240,5,2,2166,Ramp,-33.887346,150.943419,NULL
Railway,136,115,Railway Parade,2240,5,2,2166,Stairs,-33.887234,150.943480,NULL
Canterbury,138,1,Broughton Street,2265,5,2,2193,Path,-33.912116,151.119013,NULL
Mary,143,NULL,NULL,2330,5,2,2285,Lift,-32.941409,151.662255,NULL
Mary,142,NULL,NULL,2330,5,2,2285,Stairs,-32.941457,151.662301,NULL
Main,141,281,Main Road,2330,5,2,2285,Path,-32.941279,151.662819,NULL
Kingsway,144,NULL,NULL,2353,5,2,2229,Lift,-34.041625,151.121914,NULL
Kingsway,145,347,Kingsway,2353,5,2,2229,Stairs,-34.041578,151.121856,NULL
Lloyds,149,314,Cumberland Highway,2356,5,2,2118,Path,-33.782874,151.046657,NULL
Lloyds,146,1A,Lloyds Avenue,2356,5,2,2118,Path,-33.782171,151.047273,NULL
James,147,1A,Lloyds Avenue,2356,5,2,2118,Path,-33.782127,151.046844,NULL
Lloyds,148,1A,Lloyds Avenue,2356,5,2,2118,Ramp,-33.782709,151.046786,NULL
Pennant Hills,150,312B,Pennant Hills Road,2356,5,2,2118,Path,-33.783043,151.046351,NULL
Carlton,154,NULL,NULL,2365,5,2,2218,Stairs,-33.968092,151.124237,NULL
Carlton,152,37,Carlton Parade,2365,5,2,2218,Lift,-33.968010,151.124390,NULL
Carlton,155,37,Carlton Parade,2365,5,2,2218,Ramp,-33.967980,151.124179,NULL
Railway,151,310,Railway Parade,2365,5,2,2218,Lift,-33.968422,151.124536,NULL
Railway,153,318,Railway Parade,2365,5,2,2218,Stairs,-33.968468,151.124344,NULL
Carramar,157,33,Carramar Avenue,2395,5,2,2163,Path,-33.884316,150.960564,NULL
Sandal,156,144C,Wattle Avenue,2395,5,2,2163,Path,-33.884768,150.960729,NULL
Casula,159,2,Casula Road,2454,5,2,2170,Lift,-33.950352,150.912079,NULL
Casula,161,2,Casula Road,2454,5,2,2170,Path,-33.950368,150.911705,NULL
Casula,162,2,Casula Road,2454,5,2,2170,Stairs,-33.950329,150.911686,NULL
Casula,158,1,Powerhouse Road,2454,5,2,2170,Stairs,-33.950049,150.912137,NULL
Casula,160,6,Rushton Place,2454,5,2,2170,Lift,-33.950187,150.911728,NULL
Railway,186,NULL,NULL,2565,5,2,2067,Lift,-33.796898,151.180712,NULL
Orchard,185,NULL,NULL,2565,5,2,2067,Lift,-33.796735,151.181176,NULL
Thomas,187,2-4,Thomas Street,2565,5,2,2067,Lift,-33.797930,151.180693,NULL
Thomas,189,2-4,Thomas Street,2565,5,2,2067,Stairs,-33.797903,151.180647,NULL
Thomas,183,NULL,Unnamed Road,2565,5,2,2067,Lift,-33.797651,151.181263,NULL
Post Office,179,495,Victoria Avenue,2565,5,2,2067,Escalators,-33.797185,151.181428,NULL
Railway,190,461,Victoria Avenue,2565,5,2,2067,Escalators,-33.797050,151.180536,NULL
Orchard,181,45,Victoria Avenue,2565,5,2,2067,Escalators,-33.796736,151.181364,NULL
Post Office,182,1,Victoria Avenue,2565,5,2,2067,Lift,-33.797176,151.181303,NULL
Thomas,184,436,Victoria Avenue,2565,5,2,2067,Stairs,-33.797667,151.181181,NULL
Post Office,178,430,Victoria Avenue,2565,5,2,2067,Stairs,-33.797227,151.181442,NULL
Railway,188,438,Victoria Avenue,2565,5,2,2067,Stairs,-33.797095,151.180673,NULL
Railway,191,438,Victoria Avenue,2565,5,2,2067,Stairs,-33.797015,151.180521,NULL
Orchard,180,430,Victoria Avenue,2565,5,2,2067,Stairs,-33.796775,151.181380,NULL
Cheltenham,193,22,Cheltenham Road,2575,5,2,2119,Lift,-33.755439,151.078109,NULL
Cheltenham,192,22,Cheltenham Road,2575,5,2,2119,Stairs,-33.755397,151.078149,NULL
Chester Hill,194,9,Chester Hill Road,2597,5,2,2162,Path,-33.883688,151.000462,NULL
Bells,1010,NULL,Unnamed Road,2673,5,2,2790,Stairs,-33.471841,150.202119,NULL
Racecource,206,40a,Racecourse Road,2678,5,2,2756,Path,-33.608488,150.787844,NULL
Racecource,207,40a,Racecourse Road,2678,5,2,2756,Ramp,-33.608594,150.787763,NULL
Racecource,205,40a,Racecourse Road,2678,5,2,2756,Ramp,-33.608442,150.787892,NULL
Berry,208,3,Sutherland Street,2749,5,2,2142,Ramp,-33.835546,151.017038,1
Lawrence Hargrave,210,220,Lawrence Hargrave Drive,2757,5,2,2508,Stairs,-34.242535,150.977052,NULL
Cater,213,21,Cater Street,2831,5,2,2515,Stairs,-34.289892,150.943031,NULL
Como,216,111,Como Parade,2892,5,2,2226,Ramp,-34.004471,151.067689,NULL
Railway,214,31,Novara Crescent,2892,5,2,2226,Stairs,-34.004540,151.068330,NULL
Railway,215,27,Novara Crescent,2892,5,2,2226,Stairs,-34.004376,151.068248,NULL
King,220,NULL,NULL,2902,5,2,2138,Lift,-33.848089,151.085199,NULL
Queen,218,NULL,NULL,2902,5,2,2138,Lift,-33.848031,151.085901,NULL
Queen,217,NULL,NULL,2902,5,2,2138,Stairs,-33.848092,151.085952,NULL
King,221,NULL,NULL,2902,5,2,2138,Stairs,-33.847954,151.085190,NULL
King,219,40,Victoria Avenue,2902,5,2,2138,Stairs,-33.848213,151.085212,NULL
Bridge,222,25,Bridge Street,2925,5,2,2500,Stairs,-34.438239,150.885120,NULL
Gladsone,223,128,Gladstone Avenue,2925,5,2,2500,Ramp,-34.437965,150.884845,NULL
Duff,225,NULL,NULL,3136,5,2,2518,Path,-34.375494,150.905148,NULL
Pacific,64,1007,Pacific Highway,3177,5,2,2081,Ramp,-33.623002,151.153142,NULL
Pacific,228,1133,Pacific Highway,3177,5,2,2081,Ramp,-33.593789,151.171565,NULL
Pacific,227,1164A,Pacific Highway,3177,5,2,2081,Ramp,-33.592980,151.171638,NULL
Cronulla,233,NULL,NULL,3260,5,2,2230,Path,-34.055357,151.151434,NULL
Cronulla,232,138,Cronulla Street,3260,5,2,2230,Path,-34.055727,151.151599,NULL
Cronulla,231,20,Laycock Avenue,3260,5,2,2230,Path,-34.056840,151.151721,NULL
Hennessy,234,29,Hennessy Street,3285,5,2,2132,Ramp,-33.882836,151.115515,NULL
Paisley,235,2A,The Strand,3285,5,2,2132,Stairs,-33.883185,151.115082,NULL
Bong Bong,238,NULL,NULL,3475,5,2,2530,Path,-34.493482,150.791460,NULL
Bong Bong,239,20,Bong Bong Road,3475,5,2,2530,Path,-34.493435,150.791306,NULL
Station,236,30,Hamilton Street,3475,5,2,2530,Path,-34.492358,150.792222,NULL
Staiton,237,1,Station Street,3475,5,2,2530,Path,-34.493077,150.791833,NULL
Gordon,240,2C,Gordon Crescent,3597,5,2,2114,Path,-33.799519,151.086753,NULL
School,246,2,Doonside Road,3752,5,2,2767,Ramp,-33.764015,150.869281,NULL
Cross,247,17,Hill End Road,3752,5,2,2767,Ramp,-33.763627,150.869234,NULL
Main,248,4A,Wamsley Street,3754,5,2,2264,Path,-33.083823,151.501041,NULL
Newport,249,4A,Wamsley Street,3754,5,2,2264,Stairs,-33.084114,151.500864,NULL
Newport,250,4A,Wamsley Street,3754,5,2,2264,Stairs,-33.084021,151.500698,NULL
Camden,251,3,Camden Road,3769,5,2,2569,Path,-34.183233,150.710546,NULL
Camden,252,28,Station Street West,3769,5,2,2569,Path,-34.183303,150.710538,NULL
New Canterbury,253,NULL,NULL,3859,5,2,2203,Stairs,-33.904761,151.139002,NULL
Bedford,256,3,Bedford Crescent,3859,5,2,2203,Lift,-33.910626,151.140555,NULL
Bedford,255,1,Bedford Crescent,3859,5,2,2203,Stairs,-33.910671,151.140584,NULL
Constitution,17,66,Constitution Road,3859,5,2,2203,Path,-33.902049,151.138043,NULL
Grove,16,66,Constitution Road,3859,5,2,2203,Path,-33.902045,151.138159,NULL
Davis,906,10A,Davis Street,3859,5,2,2203,Path,-33.898962,151.140003,NULL
New Canterbury,254,486,New Canterbury Road,3859,5,2,2203,Lift,-33.904772,151.138975,NULL
Weston,907,77,Weston Street,3859,5,2,2203,Path,-33.898812,151.139864,NULL
Kissing Point,260,NULL,NULL,3882,5,2,2117,Path,-33.803397,151.032467,NULL
Kissing Point,258,57,Kissing Point Road,3882,5,2,2117,Ramp,-33.803883,151.032917,NULL
Kissing Point,259,57,Kissing Point Road,3882,5,2,2117,Stairs,-33.803894,151.032895,NULL
Station,257,28,Station Street,3882,5,2,2117,Path,-33.804026,151.033110,NULL
Brown,261,4,Brown Street,3900,5,2,2420,Ramp,-32.402557,151.759385,NULL
Brown,262,4,Brown Street,3900,5,2,2420,Stairs,-32.402493,151.759251,NULL
Railway,226,8,Duff Parade,3993,5,2,2518,Path,-34.375673,150.904890,NULL
Park,266,96,Park Road,4005,5,2,2213,Ramp,-33.961730,150.984255,NULL
Park,264,96,Park Road,4005,5,2,2213,Ramp,-33.961573,150.984449,NULL
Park,265,96,Park Road,4005,5,2,2213,Stairs,-33.961642,150.984343,NULL
Thompson,263,3,Thompson Lane,4005,5,2,2213,Path,-33.962011,150.984726,NULL
Melbourne,267,NULL,Melbourne Street,4019,5,2,2323,Stairs,-32.744572,151.587474,NULL
Victoria,894,64,Victoria Street,4019,5,2,2323,Stairs,-32.751124,151.593796,NULL
Waller,893,1,Waller Street,4019,5,2,2323,Stairs,-32.750965,151.594137,NULL
Railway,272,20,Railway Parade,4057,5,2,2122,Lift,-33.790170,151.082563,NULL
West,273,2C,Railway Parade,4057,5,2,2122,Lift,-33.790149,151.082002,NULL
West,274,2C,Railway Parade,4057,5,2,2122,Path,-33.790148,151.081972,NULL
Railway,271,20,Railway Parade,4057,5,2,2122,Ramp,-33.790410,151.082636,NULL
Railway,270,27,Railway Parade,4057,5,2,2122,Ramp,-33.789929,151.082667,NULL
New South Head,275,235,New South Head Road,4091,5,2,2027,Path,-33.878936,151.236154,NULL
Soliders,276,4,Henderson Road,NULL,5,2,2174,Lift,-33.969304,150.858864,NULL
Soliders,277,4,Henderson Road,NULL,5,2,2174,Stairs,-33.969362,150.858844,NULL
Old Bathurst,280,4,Mackellar Street,4211,5,2,2750,Lift,-33.745827,150.671332,NULL
Mackellar,281,4,Mackellar Street,4211,5,2,2750,Lift,-33.745657,150.671283,NULL
Old Bathurst,278,4,Mackellar Street,4211,5,2,2750,Stairs,-33.745777,150.671412,NULL
Mackellar,279,4,Mackellar Street,4211,5,2,2750,Stairs,-33.745524,150.671380,NULL
Princes,284,37,Princes Highway,4222,5,2,2233,Lift,-34.067769,151.014681,NULL
Princes,285,35-37,Princes Highway,4222,5,2,2233,Lift,-34.067381,151.014551,NULL
Princes,282,2,Station Street,4222,5,2,2233,Ramp,-34.067539,151.014842,NULL
Princes,283,2,Station Street,4222,5,2,2233,Ramp,-34.067195,151.014735,NULL
Beecroft,290,NULL,NULL,4235,5,2,2121,Lift,-33.772720,151.081567,NULL
Beecroft,288,56,Beecroft Road,4235,5,2,2121,Lift,-33.772652,151.081804,NULL
Langston,286,NULL,Beecroft Road,4235,5,2,2121,Path,-33.772548,151.082278,NULL
Beecroft,289,53,Beecroft Road,4235,5,2,2121,Stairs,-33.772915,151.081640,NULL
Beecroft,287,56,Beecroft Road,4235,5,2,2121,Stairs,-33.772841,151.081872,NULL
Erskineville,291,11,Swanson Street,4263,5,2,2043,Path,-33.900053,151.185556,NULL
Marian,731,NULL,NULL,4345,5,2,2015,Stairs,-33.892704,151.198181,NULL
Bundanoon,293,NULL,NULL,4359,5,2,2579,Path,-34.613377,150.317359,NULL
Ringwood,292,1,Bundanoon Road,4359,5,2,2579,Path,-34.613466,150.317799,NULL
Dale,300,NULL,NULL,4370,5,2,2165,Lift,-33.872644,150.956818,NULL
The Crescent,301,NULL,NULL,4370,5,2,2165,Lift,-33.872497,150.956712,NULL
Dale,296,NULL,NULL,4370,5,2,2165,Path,-33.872552,150.957049,NULL
The Crescent,298,52,The Crescent,4370,5,2,2165,Path,-33.872282,150.956899,NULL
Dale,297,52,The Crescent,4370,5,2,2165,Stairs,-33.872509,150.957006,NULL
The Crescent,299,52-68,The Crescent,4370,5,2,2165,Stairs,-33.872389,150.956864,NULL
Elliotts,302,2,Montague Street,4384,5,2,2519,Stairs,-34.395096,150.896577,NULL
Elliotts,303,62,Rann Street,4384,5,2,2519,Stairs,-34.395059,150.896452,NULL
Tucker,304,17,Fassifern Road,4409,5,2,2283,Ramp,-32.985674,151.581208,NULL
Tucker,305,17,Fassifern Road,4409,5,2,2283,Stairs,-32.985681,151.581175,NULL
Tucker,306,4,Wallsend Road,4409,5,2,2283,Ramp,-32.985576,151.580841,NULL
Great Western,307,NULL,NULL,4411,5,2,2776,Ramp,-33.696816,150.534935,NULL
Great Western,311,NULL,NULL,4411,5,2,2776,Ramp,-33.696369,150.534430,NULL
Great Western,308,NULL,NULL,4411,5,2,2776,Stairs,-33.696780,150.534926,NULL
Great Western,310,607,Great Western Highway,4411,5,2,2776,Stairs,-33.696331,150.534567,NULL
Great Western,309,24B,Sir Henrys Parade,4411,5,2,2776,Stairs,-33.696540,150.534819,NULL
Chapman,410,12,Maxwell Road,4561,5,2,2037,Ramp,-33.875560,151.178368,NULL
Chapman,409,12,Maxwell Road,4561,5,2,2037,Ramp,-33.875338,151.178597,NULL
Belinda,316,18,Belinda Street,4792,5,2,2534,Ramp,-34.744778,150.817650,NULL
Burton,317,4,Burton Street,4884,5,2,2037,Stairs,-33.877076,151.187564,NULL
Bayview,318,5030,Palmerston Avenue,4884,5,2,2037,Ramp,-33.877294,151.187253,NULL
Chapman,408,7,Victoria Road,4884,5,2,2037,Stairs,-33.875320,151.178614,NULL
Burfitt,319,5B,Burfitt Parade,4935,5,2,2773,Ramp,-33.769026,150.621263,NULL
Railway,322,108,Railway Parade,4959,5,2,2167,Lift,-33.972286,150.893255,NULL
service road,323,104,Railway Parade,4959,5,2,2167,Lift,-33.971830,150.893173,NULL
Railway,324,102,Railway Parade,4959,5,2,2167,Stairs,-33.972475,150.893125,NULL
Railway,320,104,Railway Parade,4959,5,2,2167,Stairs,-33.972077,150.893577,NULL
service road,321,90,Railway Parade,4959,5,2,2167,Stairs,-33.971739,150.893269,NULL
St Johns,328,1-5,Saint Johns Avenue,5130,5,2,2072,Ramp,-33.755964,151.154096,NULL
Wade,329,3,Wade Lane,5130,5,2,2072,Ramp,-33.755682,151.153977,NULL
Werona,325,77,Werona Avenue,5130,5,2,2072,Ramp,-33.755984,151.154864,NULL
Werona,326,87,Werona Avenue,5130,5,2,2072,Ramp,-33.755350,151.154396,NULL
St Johns,327,3,Werona Avenue,5130,5,2,2072,Stairs,-33.756120,151.154175,NULL
Burns,330,6,Burns Crescent,5144,5,2,2250,Lift,-33.423480,151.341944,NULL
Burns,331,6,Burns Crescent,5144,5,2,2250,Stairs,-33.423481,151.341911,NULL
Showground,333,38,Showground Road,5144,5,2,2250,Path,-33.423383,151.341401,NULL
Showground,332,40,Showground Road,5144,5,2,2250,Stairs,-33.423330,151.341414,NULL
Sloane,334,NULL,Sloane Street,5151,5,2,2580,Path,-34.759019,149.720588,NULL
Park,335,171,Sloane Street,5151,5,2,2580,Path,-34.758126,149.719249,NULL
Memorial,337,7-9,South Street,5199,5,2,2142,Ramp,-33.832900,151.011405,NULL
Memorial,336,9A,South Street,5199,5,2,2142,Ramp,-33.832776,151.011491,NULL
Factory,209,29,William Street,5199,5,2,2142,Ramp,-33.836061,151.016563,2
Mansfield,343,2B,Mansfield Street,5297,5,2,2334,Ramp,-32.686675,151.384053,NULL
Nelson,342,2B,Nelson Street,5297,5,2,2334,Ramp,-32.686787,151.384282,NULL
Military,351,132,Military Road,5336,5,2,2161,Lift,-33.854492,150.984227,NULL
Military,348,126,Military Road,5336,5,2,2161,Ramp,-33.854167,150.984403,NULL
Military,345,121,Military Road,5336,5,2,2161,Ramp,-33.853822,150.984647,NULL
Military,350,128,Military Road,5336,5,2,2161,Stairs,-33.854330,150.984277,NULL
Military,349,126,Military Road,5336,5,2,2161,Stairs,-33.854257,150.984328,NULL
Railway,347,322,Railway Terrace,5336,5,2,2161,Lift,-33.854568,150.984486,NULL
Railway,344,318,Railway Terrace,5336,5,2,2161,Ramp,-33.854233,150.984682,NULL
Railway,346,318,Railway Terrace,5336,5,2,2161,Stairs,-33.854449,150.984595,NULL
Gymea Bay,352,57B,Gymea Bay Road,5413,5,2,2227,Lift,-34.034907,151.085208,NULL
Gymea Bay,353,57B,Gymea Bay Road,5413,5,2,2227,Stairs,-34.034870,151.085182,NULL
Marion,519,2A,Marion Street,5418,5,2,2045,Path,-33.883915,151.144996,NULL
Beaumont,355,1A,Beaumont Street,5465,5,2,2303,Ramp,-32.918530,151.748397,NULL
Beaumont,357,1A,Beaumont Street,5465,5,2,2303,Ramp,-32.918418,151.748255,NULL
Beaumont,356,1A,Beaumont Street,5465,5,2,2303,Stairs,-32.918385,151.748269,NULL
Marion,358,46A,Wigram Street,5525,5,2,2150,Ramp,-33.823357,151.007932,NULL
Hay,669,NULL,NULL,5582,5,2,2000,Path,-33.879337,151.202620,NULL
Hay,668,NULL,NULL,5582,5,2,2000,Path,-33.879254,151.202740,NULL
Chalmers,171,65,Chalmers Street,5582,5,2,2000,Escalators,-33.885444,151.206822,6
Chalmers,172,67,Chalmers Street,5582,5,2,2000,Stairs,-33.885478,151.206790,6
Eddy,167,1,Eddy Avenue,5582,5,2,2000,Escalators,-33.883208,151.207011,3
Eddy,175,11,Eddy Avenue,5582,5,2,2000,Escalators,-33.882137,151.206098,NULL
Eddy,168,NULL,Eddy Avenue,5582,5,2,2000,Lift,-33.883536,151.206971,3
Eddy,169,1,Eddy Avenue,5582,5,2,2000,Path,-33.882539,151.206884,2
Eddy,173,1,Eddy Avenue,5582,5,2,2000,Path,-33.882330,151.206503,2
Eddy,174,NULL,Eddy Avenue,5582,5,2,2000,Stairs,-33.882102,151.206125,NULL
Hay,140,744,George Street,5582,5,2,2000,Path,-33.879804,151.205512,NULL
Hay,139,730-742,George Street,5582,5,2,2000,Path,-33.879708,151.205558,NULL
Lee,177,8A,Lee Street,5582,5,2,2000,Path,-33.883985,151.204266,7
Pitt,176,15,Railway Colonnade Drive,5582,5,2,2000,Path,-33.882366,151.205813,1
Eddy,166,NULL,Railway Colonnade Drive,5582,5,2,2000,Stairs,-33.883024,151.207076,3
Great Western,365,183-186,Great Western Highway,5586,5,2,2779,Ramp,-33.723086,150.454017,NULL
Great Western,364,186,Great Western Highway,5586,5,2,2779,Stairs,-33.723530,150.454573,NULL
Railway,366,39,Railway Parade,5586,5,2,2779,Path,-33.723673,150.453967,NULL
Princes,370,1350,A1,5601,5,2,2233,Path,-34.087802,151.008285,NULL
Princes,369,1349,A1,5601,5,2,2233,Ramp,-34.087785,151.008298,NULL
Tunnel,371,9,Tunnel Road,5627,5,2,2508,Lift,-34.177189,150.994246,NULL
Tunnel,372,9,Tunnel Road,5627,5,2,2508,Stairs,-34.177147,150.994085,NULL
Maitland,373,360,Maitland Road,5671,5,2,2322,Stairs,-32.828752,151.684320,NULL
Hilldale,376,179,Hilldale Road,5713,5,2,2420,Ramp,-32.504484,151.649805,NULL
The Boulevarde,379,25,The Boulevarde,5779,5,2,2173,Lift,-33.962829,150.956351,NULL
The Boulevarde,378,NULL,The Boulevarde,5779,5,2,2173,Ramp,-33.962979,150.956456,NULL
The Boulevarde,377,NULL,The Boulevarde,5779,5,2,2173,Stairs,-33.962927,150.956504,NULL
The Crescent,381,NULL,NULL,5789,5,2,2140,Ramp,-33.866968,151.086107,NULL
Loftus,380,11,Station Street,5789,5,2,2140,Stairs,-33.866419,151.086421,NULL
The Crescent,382,22,The Crescent,5789,5,2,2140,Stairs,-33.866926,151.086095,NULL
The Crescent,315,318,Parramatta Road,5792,5,2,2140,Stairs,-33.863892,151.070239,NULL
The Crescent,314,96,The Crescent,5792,5,2,2140,Stairs,-33.865154,151.070676,NULL
Hunter,383,21,Florence Street,5819,5,2,2077,Ramp,-33.703839,151.099774,NULL
George,386,6,Florence Street,5819,5,2,2077,Ramp,-33.703735,151.098746,NULL
George,384,6,Florence Street,5819,5,2,2077,Ramp,-33.703553,151.098842,NULL
George,385,6,Florence Street,5819,5,2,2077,Stairs,-33.703569,151.098831,NULL
Station,387,240-242,Pacific Highway,5819,5,2,2077,Path,-33.703479,151.098091,NULL
Duntroon,389,116,Duntroon Street,5900,5,2,2193,Path,-33.910189,151.132541,NULL
Forest,394,249,Forest Road,5903,5,2,2220,Escalators,-33.966517,151.101902,NULL
Forest,393,249,Forest Road,5903,5,2,2220,Ramp,-33.966517,151.101902,NULL
Forest,390,231,Forest Road,5903,5,2,2220,Stairs,-33.967034,151.102847,NULL
Ormonde,392,30,Ormonde Parade,5903,5,2,2220,Lift,-33.967632,151.102288,NULL
Ormonde,391,NULL,Ormonde Parade,5903,5,2,2220,Stairs,-33.967684,151.102359,NULL
Roberts,12,7,Roberts Lane,5903,5,2,2220,Ramp,-33.969537,151.114694,NULL
Roberts,13,7,Roberts Lane,5903,5,2,2220,Stairs,-33.969490,151.114566,NULL
Stanley,398,NULL,NULL,5950,5,2,2565,Ramp,-33.997421,150.864313,NULL
Ingleburn,397,3,Ingleburn Road,5950,5,2,2565,Stairs,-33.997889,150.864377,NULL
Ingleburn,395,1890,Ingleburn Road,5950,5,2,2565,Stairs,-33.997438,150.864875,NULL
Ingleburn,396,2,Oxford Road,5950,5,2,2565,Ramp,-33.997602,150.864618,NULL
Stanley,399,45,Stanley Road,5950,5,2,2565,Stairs,-33.997576,150.864010,NULL
Beaumont,354,6,Beaumont Street,6018,5,2,2296,Stairs,-32.918025,151.748511,NULL
Railway,403,NULL,NULL,6068,5,2,2226,Ramp,-34.016091,151.064840,NULL
Mitchell,405,3A,Jannali Avenue,6068,5,2,2226,Ramp,-34.015994,151.064370,NULL
Railway,404,63,Railway Crescent,6068,5,2,2226,Path,-34.015883,151.064756,NULL
Bathurst,413,75,Bathurst Road,6354,5,2,2780,Lift,-33.712282,150.311982,NULL
Bathurst,412,77,Bathurst Road,6354,5,2,2780,Ramp,-33.712276,150.312138,NULL
Bathurst,414,287,Bathurst Road,6354,5,2,2780,Stairs,-33.712252,150.311784,NULL
Goldsmith,411,273,Great Western Highway,6354,5,2,2780,Ramp,-33.711948,150.312168,NULL
West Dapto,415,3,West Dapto Road,6402,5,2,2526,Ramp,-34.470126,150.817796,NULL
Railway,416,35,Bong Bong Street,6484,5,2,2533,Path,-34.672599,150.854366,NULL
Culworth,418,18,Culworth Avenue,6515,5,2,2071,Stairs,-33.765852,151.161797,NULL
Werona,417,23A,Werona Avenue,6515,5,2,2071,Stairs,-33.765694,151.162099,NULL
Kingsgrove,424,1,Commercial Road,6578,5,2,2208,Stairs,-33.940457,151.100856,NULL
Kingsgrove,422,1,Commercial Road,6578,5,2,2208,Stairs,-33.940375,151.101084,NULL
Kingsgrove,423,231,Kingsgrove Road,6578,5,2,2208,Lift,-33.940480,151.100874,NULL
Great Western,426,NULL,NULL,6592,5,2,2747,Lift,-33.758426,150.720233,NULL
Richmond,425,NULL,NULL,6592,5,2,2747,Ramp,-33.758233,150.720239,NULL
Great Western,428,NULL,NULL,6592,5,2,2747,Stairs,-33.758367,150.720071,NULL
Richmond,427,NULL,NULL,6592,5,2,2747,Stairs,-33.758233,150.720116,NULL
Oak,429,166,Oak Road,6616,5,2,2232,Path,-34.034911,151.071020,NULL
Regent,431,1,Railway Parade,6644,5,2,2217,Lift,-33.962746,151.132687,NULL
Station,433,7,Railway Parade,6644,5,2,2217,Lift,-33.962643,151.132191,NULL
Regent,430,11,Railway Parade,6644,5,2,2217,Stairs,-33.962796,151.132691,NULL
Station,432,7,Railway Parade,6644,5,2,2217,Stairs,-33.962605,151.132201,NULL
Station,435,12,Station Street,6644,5,2,2217,Ramp,-33.962795,151.132102,NULL
Station,434,14,Station Street,6644,5,2,2217,Stairs,-33.962688,151.132145,NULL
Glenrock,436,38,Brisbane Water Drive,6670,5,2,2256,Stairs,-33.466133,151.318476,NULL
Glenrock,437,138,Glenrock Parade,6670,5,2,2256,Stairs,-33.466144,151.318369,NULL
Kotara,439,7-9,Kotara Place,6731,5,2,2289,Ramp,-32.941369,151.697463,NULL
Park,438,202,Park Avenue,6731,5,2,2289,Stairs,-32.941769,151.698059,NULL
Railway,441,44,Railway Parade,6954,5,2,2195,Lift,-33.919880,151.076251,NULL
Railway,442,44,Railway Parade,6954,5,2,2195,Stairs,-33.919759,151.076133,NULL
The Boulevarde,440,60A,The Boulevarde,6954,5,2,2195,Lift,-33.920101,151.076370,NULL
Explorers,443,215,Explorers Road,7018,5,2,2773,Ramp,-33.773278,150.642635,NULL
Explorers,444,215,Explorers Road,7018,5,2,2773,Stairs,-33.773559,150.642610,NULL
Great Western,448,289,A32,7066,5,2,2783,Ramp,-33.719435,150.429499,NULL
Honour,445,7,Honour Avenue,7066,5,2,2783,Ramp,-33.719507,150.430417,NULL
Great Western,446,1,Honour Avenue,7066,5,2,2783,Ramp,-33.719142,150.430060,NULL
Lotus,447,6,Loftus Street,7066,5,2,2783,Ramp,-33.718972,150.429606,NULL
Darley,362,2,Darley Road,7096,5,2,2040,Path,-33.879582,151.147550,NULL
Darley,363,26,Darley Road,7096,5,2,2040,Path,-33.879500,151.147106,NULL
Rickard,455,187,Rickard Road,7122,5,2,2179,Lift,-33.954515,150.808246,NULL
Rickard,454,199,Rickard Road,7122,5,2,2179,Stairs,-33.954439,150.808266,NULL
O'Sullivan,456,2,O'Sullivan Road,7135,5,2,2560,Lift,-34.050674,150.830805,NULL
O'Sullivan,462,4,O'Sullivan Road,7135,5,2,2560,Ramp,-34.051029,150.830433,NULL
Old Leumeah,458,4,O'Sullivan Road,7135,5,2,2560,Ramp,-34.050801,150.830725,NULL
O'Sullivan,460,2,O'Sullivan Road,7135,5,2,2560,Stairs,-34.050895,150.830574,NULL
Old Leumeah,459,2,O'Sullivan Road,7135,5,2,2560,Stairs,-34.050813,150.830702,NULL
Plough Inn,461,NULL,Plough Inn Road,7135,5,2,2560,Lift,-34.050482,150.830560,NULL
Plough Inn,457,NULL,Plough Inn Road,7135,5,2,2560,Path,-34.050312,150.830767,NULL
Railway,463,133,Leura Mall,7136,5,2,2780,Stairs,-33.712120,150.331128,NULL
Hudson,466,2,McGill Street,7141,5,2,2049,Path,-33.893850,151.143462,NULL
Railway,465,2,Victoria Street,7141,5,2,2049,Stairs,-33.893635,151.147544,NULL
Thomas,464,4,Victoria Street,7141,5,2,2049,Stairs,-33.893109,151.147598,NULL
Church,469,29,Church Street,7152,5,2,2141,Lift,-33.863460,151.044792,NULL
Church,468,31A,Church Street,7152,5,2,2141,Path,-33.863531,151.045064,NULL
Church,472,NULL,Church Street,7152,5,2,2141,Stairs,-33.863380,151.044554,NULL
Railway,471,NULL,Railway Parade,7152,5,2,2141,Lift,-33.863867,151.044606,NULL
Railway,470,NULL,Railway Parade,7152,5,2,2141,Stairs,-33.863869,151.044644,NULL
Railway,473,64,Railway Street,7152,5,2,2141,Stairs,-33.863756,151.044279,NULL
Catherine,474,383,A4,7171,5,2,2040,Ramp,-33.874195,151.164823,NULL
Catherine,475,383,A4,7171,5,2,2040,Stairs,-33.874115,151.164768,NULL
City West Link,451,71,Hubert Street,7171,5,2,2040,Path,-33.874998,151.153580,NULL
James,449,130,James Street,7171,5,2,2040,Lift,-33.874980,151.155035,NULL
James,450,130,James Street,7171,5,2,2040,Stairs,-33.874994,151.155017,NULL
Burke,477,NULL,NULL,7189,5,2,2778,Stairs,-33.714744,150.504366,NULL
Great Western,476,807,Great Western Highway,7189,5,2,2778,Path,-33.715330,150.505321,NULL
Lindfield,482,NULL,NULL,7196,5,2,2070,Stairs,-33.775087,151.169230,NULL
Pacific,484,331,A1,7196,5,2,2070,Stairs,-33.775702,151.169076,NULL
Lindfield,480,9,Lindfield Avenue,7196,5,2,2070,Ramp,-33.775267,151.169370,NULL
Lindfield,478,1,Lindfield Avenue,7196,5,2,2070,Stairs,-33.775654,151.169509,NULL
Lindfield,479,9,Lindfield Avenue,7196,5,2,2070,Stairs,-33.775288,151.169385,NULL
Pacific,483,1-5,Tryon Place,7196,5,2,2070,Ramp,-33.775738,151.169107,NULL
Pacific,481,1-5,Tryon Place,7196,5,2,2070,Stairs,-33.775954,151.169300,NULL
Railway,488,5,Awaba Street,7212,5,2,2250,Path,-33.382059,151.370071,NULL
Railway,487,5,Awaba Street,7212,5,2,2250,Stairs,-33.382071,151.370084,NULL
Pacific,486,58,Railway Crescent,7212,5,2,2250,Path,-33.382192,151.370165,NULL
Pacific,485,58,Railway Crescent,7212,5,2,2250,Stairs,-33.382184,151.370179,NULL
Main,489,114,Main Street,7219,5,2,2790,Path,-33.480925,150.156929,NULL
Railway,490,57,Railway Parade,7219,5,2,2790,Path,-33.480516,150.156706,NULL
Biggs,492,256,Bigge Street,7244,5,2,2170,Lift,-33.924384,150.926997,NULL
Moore,491,140,Bigge Street,7244,5,2,2170,Path,-33.923146,150.927698,NULL
Biggs,493,256,Bigge Street,7244,5,2,2170,Stairs,-33.924304,150.926937,NULL
Station,495,NULL,NULL,7265,5,2,2321,Ramp,-32.720394,151.450481,NULL
Station,494,238,Station Lane,7265,5,2,2321,Ramp,-32.720483,151.450531,NULL
Pitt,496,NULL,NULL,7279,5,2,2232,Ramp,-34.044999,151.051388,NULL
Loftus,497,113,Loftus Lane,7279,5,2,2232,Ramp,-34.045454,151.051209,NULL
Railway,505,276,Railway Parade,7491,5,2,2564,Ramp,-33.984966,150.878937,NULL
Railway,504,278,Railway Parade,7491,5,2,2564,Stairs,-33.984842,150.879078,NULL
Lane Cove,507,NULL,NULL,7496,5,2,2113,Escalators,-33.785368,151.128445,NULL
Herring,512,NULL,NULL,7496,5,2,2109,Escalators,-33.777211,151.118104,NULL
Lane Cove,506,NULL,NULL,7496,5,2,2113,Lift,-33.785444,151.128497,NULL
Herring,510,NULL,NULL,7496,5,2,2113,Lift,-33.777435,151.118471,NULL
Herring,513,NULL,NULL,7496,5,2,2109,Lift,-33.777168,151.118093,NULL
Herring,511,175,Herring Road,7496,5,2,2113,Escalators,-33.777416,151.118413,NULL
High,374,NULL,NULL,7542,5,2,2320,Stairs,-32.741327,151.564424,NULL
Johnson,844,22,Johnson Street,7542,5,2,2320,Ramp,-32.723231,151.539895,NULL
Johnson,845,22,Johnson Street,7542,5,2,2320,Stairs,-32.723378,151.539885,NULL
Station,514,NULL,Station Street,7542,5,2,2320,Path,-32.737747,151.552236,NULL
Railway,518,62,Railway Road,7661,5,2,2148,Lift,-33.746022,150.900042,NULL
Harvey,516,64,Railway Road,7661,5,2,2148,Lift,-33.746017,150.900309,NULL
Railway,517,62,Railway Road,7661,5,2,2148,Stairs,-33.746230,150.900047,NULL
Harvey,515,62,Railway Road,7661,5,2,2148,Stairs,-33.746220,150.900311,NULL
Wardell,388,2,Dudley Street,7737,5,2,2204,Stairs,-33.911058,151.141146,NULL
Richardson,854,NULL,Richardsons Crescent,7737,5,2,2204,Stairs,-33.923896,151.156397,NULL
Illawarra,523,2,Station Street,7737,5,2,2204,Lift,-33.913835,151.153151,NULL
Illawarra,522,10,Station Street,7737,5,2,2204,Lift,-33.913781,151.153181,NULL
Station,520,12,Station Street,7737,5,2,2204,Path,-33.913975,151.153316,NULL
Illawarra,524,2,Station Street,7737,5,2,2204,Stairs,-33.913863,151.153138,NULL
Illawarra,521,10,Station Street,7737,5,2,2204,Stairs,-33.913757,151.153224,NULL
Richardson,853,NULL,Unnamed Road,7737,5,2,2204,Stairs,-33.923580,151.156471,NULL
Grace,531,2,Cory Street,7751,5,2,2420,Ramp,-32.558481,151.618412,NULL
Railway,533,1,Wollondilly Street,7754,5,2,2579,Path,-34.709599,150.005669,NULL
Wollondilly,532,1,Wollondilly Street,7754,5,2,2579,Path,-34.709501,150.005677,NULL
Keith Smith,244,NULL,NULL,7769,5,2,2020,Escalators,-33.934003,151.180113,NULL
Keith Smith,245,NULL,NULL,7769,5,2,2020,Lift,-33.933986,151.180049,NULL
Keith Smith,243,NULL,NULL,7769,5,2,2020,Stairs,-33.934008,151.180141,NULL
Departure,400,1072,Airport Drive,7769,5,2,2020,Escalators,-33.935181,151.166541,NULL
Departure,401,1072,Airport Drive,7769,5,2,2020,Lift,-33.935207,151.166470,NULL
Departure,402,1072,Airport Drive,7769,5,2,2020,Lift,-33.935198,151.166446,NULL
Bourke,536,7,Bourke Street,7769,5,2,2020,Lift,-33.923363,151.187339,NULL
Bourke,535,32,John Street,7769,5,2,2020,Escalators,-33.923158,151.187362,NULL
Bourke,534,32,John Street,7769,5,2,2020,Stairs,-33.923159,151.187392,NULL
Keith Smith,242,NULL,Keith Smith Avenue,7769,5,2,2020,Lift,-33.933569,151.180568,NULL
Keith Smith,241,NULL,Keith Smith Avenue,7769,5,2,2020,Stairs,-33.933626,151.180573,NULL
Platt,905,2,Railway Terrace,7797,5,2,2304,Stairs,-32.902354,151.731023,NULL
Bank,539,NULL,Bank Street,7848,5,2,2114,Lift,-33.815627,151.089939,NULL
Bank,540,27,Bank Street,7848,5,2,2114,Ramp,-33.815555,151.089916,NULL
Constitution,537,64,Constitution Road,7848,5,2,2114,Lift,-33.815669,151.090224,NULL
Constitution,538,64,Constitution Road,7848,5,2,2114,Stairs,-33.815795,151.090208,NULL
Great Western,541,50,A32,7862,5,2,2780,Ramp,-33.674654,150.281141,NULL
Great Western,542,1,Atlingworth Parade,7862,5,2,2780,Stairs,-33.672953,150.280391,NULL
Stevens,544,NULL,Stevens Road,7907,5,2,2568,Path,-34.125855,150.744066,NULL
Stevens,543,NULL,Stevens Road,7907,5,2,2568,Ramp,-34.125394,150.744180,NULL
Racecourse,546,72,Racecourse Avenue,7908,5,2,2563,Ramp,-34.103385,150.744950,NULL
Racecourse,545,72,Racecourse Avenue,7908,5,2,2563,Ramp,-34.103381,150.745079,NULL
Railway,550,91,Merrylands Road,7974,5,2,2160,Lift,-33.836906,150.992375,NULL
Railway,551,126,Merrylands Road,7974,5,2,2160,Ramp,-33.836948,150.992327,NULL
Terminal,556,135,Merrylands Road,7974,5,2,2160,Ramp,-33.836851,150.992015,NULL
Railway,547,91,Merrylands Road,7974,5,2,2160,Ramp,-33.836695,150.992669,NULL
Railway,555,126,Merrylands Road,7974,5,2,2160,Stairs,-33.837154,150.992075,NULL
Terminal,557,134,Merrylands Road,7974,5,2,2160,Stairs,-33.837050,150.991837,NULL
Railway,549,91,Merrylands Road,7974,5,2,2160,Stairs,-33.836805,150.992561,NULL
Terminal,554,137,Merrylands Road,7974,5,2,2160,Stairs,-33.836715,150.992163,NULL
Terminal,552,137,Merrylands Road,7974,5,2,2160,Stairs,-33.836582,150.992281,NULL
Terminal,553,116,Railway Terrace,7974,5,2,2160,Lift,-33.836790,150.992228,NULL
Terminal,548,1,Terminal Place,7974,5,2,2160,Ramp,-33.836314,150.992666,NULL
McCubbin,559,8,McCubbin Close,7986,5,2,2323,Lift,-32.765360,151.618132,NULL
McCubbin,558,8,McCubbin Close,7986,5,2,2323,Stairs,-32.765478,151.618292,NULL
Alfred,561,NULL,NULL,8104,5,2,2061,Path,-33.845946,151.211719,NULL
Ennis,560,10,Ennis Road,8104,5,2,2061,Ramp,-33.845795,151.212403,NULL
Tocal,562,392,Tocal Road,8118,5,2,2320,Ramp,-32.668350,151.584553,NULL
North,563,8,North Street,8143,5,2,2533,Ramp,-34.626330,150.853009,NULL
Minto,565,4,Minto Road,8152,5,2,2566,Lift,-34.027644,150.842564,NULL
Minto,566,2,Minto Road,8152,5,2,2566,Ramp,-34.027769,150.842550,NULL
Minto,564,2,Minto Road,8152,5,2,2566,Stairs,-34.027504,150.842600,NULL
Somerset,568,9,Wiltshire Street,8152,5,2,2566,Lift,-34.027466,150.842237,NULL
Somerset,569,11,Wiltshire Street,8152,5,2,2566,Ramp,-34.027693,150.842231,NULL
Somerset,567,9,Wiltshire Street,8152,5,2,2566,Stairs,-34.027220,150.842327,NULL
Kiora,571,92,Kiora Road,8161,5,2,2228,Ramp,-34.036075,151.101970,NULL
Kiora,570,92,Kiora Road,8161,5,2,2228,Stairs,-34.036075,151.101970,NULL
Railway,572,38,Railway Parade,8193,5,2,2575,Stairs,-34.452638,150.448385,NULL
Regent,573,1,Station Street,8193,5,2,2575,Stairs,-34.452403,150.448362,NULL
Dora,579,83,B53,8438,5,2,2264,Ramp,-33.108950,151.487884,NULL
Macquarie,574,108,Macquarie Street,8438,5,2,2264,Lift,-33.109036,151.488290,NULL
Dora,576,108,Macquarie Street,8438,5,2,2264,Lift,-33.108838,151.488156,NULL
Macquarie,575,108,Macquarie Street,8438,5,2,2264,Ramp,-33.109029,151.488249,NULL
Macquarie,577,108,Macquarie Street,8438,5,2,2264,Stairs,-33.109079,151.488153,NULL
Dora,578,108,Macquarie Street,8438,5,2,2264,Stairs,-33.108931,151.488060,NULL
Cook,582,2,Morts Road,8452,5,2,2223,Lift,-33.971040,151.080879,NULL
Cook,583,2A,Morts Road,8452,5,2,2223,Stairs,-33.971165,151.080809,NULL
Coleborne,580,103-105,Railway Parade,8452,5,2,2223,Lift,-33.971122,151.081084,NULL
Coleborne,581,103-105,Railway Parade,8452,5,2,2223,Stairs,-33.971239,151.081009,NULL
Argyle,584,NULL,NULL,8473,5,2,2577,Path,-34.548389,150.372103,NULL
Lackey,585,247,Argyle Street,8473,5,2,2577,Path,-34.547592,150.371870,NULL
Pacific,586,599,Pacific Highway,8534,5,2,2079,Stairs,-33.671292,151.115098,NULL
North,589,NULL,NULL,8559,5,2,2770,Lift,-33.769032,150.820186,NULL
Beames,593,NULL,NULL,8559,5,2,2770,Ramp,-33.769957,150.820108,NULL
North,587,NULL,NULL,8559,5,2,2770,Ramp,-33.769056,150.820321,NULL
North,588,NULL,NULL,8559,5,2,2770,Stairs,-33.768884,150.820314,NULL
North,597,NULL,NULL,8559,5,2,2770,Stairs,-33.768833,150.819593,NULL
Beames,591,211,Beames Avenue,8559,5,2,2770,Lift,-33.769777,150.820169,NULL
Beames,594,1,Coates Street,8559,5,2,2770,Stairs,-33.769759,150.819919,NULL
North,592,53,North Parade,8559,5,2,2770,Lift,-33.769410,150.820142,NULL
North,595,51,North Parade,8559,5,2,2770,Lift,-33.768855,150.819857,NULL
North,590,53,North Parade,8559,5,2,2770,Stairs,-33.769402,150.820177,NULL
North,596,51,North Parade,8559,5,2,2770,Stairs,-33.769032,150.819779,NULL
Harwood,599,7,Harwood Avenue,8626,5,2,2080,Ramp,-33.653823,151.136988,NULL
Harwood,598,7,Harwood Avenue,8626,5,2,2080,Stairs,-33.653827,151.137012,NULL
Pacific,600,787-795,Pacific Highway,8626,5,2,2080,Ramp,-33.653769,151.136568,NULL
Patrick,601,35a,Station Street,8748,5,2,2786,Stairs,-33.588267,150.257054,NULL
Station,602,35a,Station Street,8748,5,2,2786,Stairs,-33.588175,150.256825,NULL
Mulgrave,603,122,Mulgrave Road,8818,5,2,2756,Ramp,-33.626498,150.829898,NULL
Market,611,35,Market Street,8972,5,2,2333,Ramp,-32.267441,150.890863,NULL
Market,612,35,Market Street,8972,5,2,2333,Stairs,-32.267585,150.890803,NULL
Market,613,18,Market Street,8972,5,2,2333,Stairs,-32.267426,150.890461,NULL
Goonak,614,45,Narara Crescent,9086,5,2,2250,Path,-33.394781,151.344553,NULL
Narara Valley,616,44,Narara Valley Drive,9086,5,2,2250,Path,-33.394606,151.344415,NULL
Narara Valley,615,44,Narara Valley Drive,9086,5,2,2250,Stairs,-33.394594,151.344433,NULL
Hurst,618,3,Fisher Place,9131,5,2,2209,Path,-33.947831,151.070644,NULL
Hannans,617,117,Hannans Road,9131,5,2,2209,Path,-33.947500,151.070799,NULL
Cooper,622,850,Hunter Street,9252,5,2,2302,Path,-32.924456,151.758950,NULL
Burren,503,71,Burren Street,9279,5,2,2042,Stairs,-33.896791,151.185386,NULL
King,623,324A,King Street,9279,5,2,2042,Lift,-33.897948,151.178891,NULL
King,624,324A,King Street,9279,5,2,2042,Ramp,-33.897876,151.178881,NULL
Lord,811,9,Lord Street,9279,5,2,2042,Path,-33.906942,151.180649,NULL
Kathleen Morreau,625,23,Kathleen Morreau Road,9286,5,2,2250,Stairs,-33.383228,151.354572,NULL
Washington,626,23,Kathleen Morreau Road,9286,5,2,2250,Stairs,-33.383070,151.354404,NULL
Denman,627,54,Denman Parade,9376,5,2,2076,Path,-33.720908,151.097151,NULL
Malsbury,628,2,Eaton Avenue,9376,5,2,2076,Path,-33.720647,151.096902,NULL
Delhi,630,19,Delhi Road,9465,5,2,2113,Escalators,-33.794514,151.137923,NULL
Delhi,629,19,Delhi Road,9465,5,2,2113,Lift,-33.794552,151.137925,NULL
Lane Cove,508,37a,Waterloo Road,9465,5,2,2113,Escalators,-33.785078,151.128004,NULL
Lane Cove,509,37a,Waterloo Road,9465,5,2,2113,Lift,-33.785062,151.127979,NULL
Station,809,NULL,NULL,NULL,5,2,2760,Stairs,-33.762318,150.774872,NULL
Forrester,806,NULL,Station Street,NULL,5,2,2760,Lift,-33.761897,150.775158,NULL
Forrester,808,NULL,Station Street,NULL,5,2,2760,Stairs,-33.761880,150.774925,NULL
Pomeroy,641,27,Beronga Street,9473,5,2,2137,Ramp,-33.857557,151.087398,NULL
Hamilton,632,2A,Hamilton Street,9473,5,2,2137,Ramp,-33.859706,151.088207,NULL
Queen,631,81,Queen Street,9473,5,2,2137,Stairs,-33.859162,151.088501,NULL
Blue,633,42,Blue Street,9474,5,2,2060,Path,-33.841022,151.207498,NULL
Blue,634,32,Blue Street,9474,5,2,2060,Path,-33.841003,151.207374,NULL
Station,637,2a,Flinders Street,9495,5,2,2500,Lift,-34.412111,150.891528,NULL
Station,636,2a,Flinders Street,9495,5,2,2500,Path,-34.412118,150.891559,NULL
Station,635,4,Flinders Street,9495,5,2,2500,Stairs,-34.412350,150.891562,NULL
Porter,638,18,Porter Street,9495,5,2,2500,Lift,-34.412085,150.891361,NULL
Porter,639,18,Porter Street,9495,5,2,2500,Path,-34.412087,150.891326,NULL
Porter,640,20,Porter Street,9495,5,2,2500,Stairs,-34.412306,150.891248,NULL
Stanford,642,NULL,Stanford Drive,9613,5,2,2529,Ramp,-34.571981,150.820611,NULL
Stanford,644,NULL,Stanford Drive,9613,5,2,2529,Ramp,-34.571730,150.820208,NULL
Stanford,643,NULL,Stanford Drive,9613,5,2,2529,Stairs,-34.571888,150.820453,NULL
Mulga,647,NULL,NULL,9644,5,2,2223,Lift,-33.980259,151.078761,NULL
River,646,4,Mulga Road,9644,5,2,2223,Stairs,-33.980004,151.078968,NULL
Oatley,645,12A,Oatley Parade,9644,5,2,2223,Lift,-33.980228,151.079292,NULL
Lady Carrington,662,42,Lady Carrington Road,9764,5,2,2508,Ramp,-34.210722,151.005521,NULL
Station,663,42,Lady Carrington Road,9764,5,2,2508,Stairs,-34.211092,151.005504,NULL
Lady Carrington,661,42,Lady Carrington Road,9764,5,2,2508,Stairs,-34.210526,151.005908,NULL
Station,666,NULL,NULL,9768,5,2,2258,Path,-33.359695,151.369750,NULL
Station,667,NULL,NULL,9768,5,2,2258,Path,-33.359373,151.369735,NULL
Mill,664,NULL,NULL,9768,5,2,2258,Stairs,-33.359656,151.370276,NULL
Mill,665,80,Brownlee Street,9768,5,2,2258,Ramp,-33.359554,151.370108,NULL
Memorial,673,NULL,NULL,9808,5,2,2211,Path,-33.952005,151.031966,NULL
Howard,671,NULL,NULL,9808,5,2,2211,Ramp,-33.952094,151.032024,NULL
Memorial,674,NULL,NULL,9808,5,2,2211,Stairs,-33.951706,151.031930,NULL
Banks,670,134,Cahors Road,9808,5,2,2211,Path,-33.951684,151.032344,NULL
Memorial,672,132,Memorial Drive,9808,5,2,2211,Ramp,-33.951764,151.031979,NULL
Weston,676,224,Weston Street,9861,5,2,2213,Ramp,-33.954404,150.998267,NULL
Anderson,675,224,Weston Street,9861,5,2,2213,Ramp,-33.954133,150.998297,NULL
Liverpool-Parramatta,682,87,Argyle Street,9924,5,2,2150,Lift,-33.817376,151.004695,NULL
Liverpool-Parramatta,685,87,Argyle Street,9924,5,2,2150,Stairs,-33.817204,151.004443,NULL
Liverpool-Parramatta,684,159-175,Church Street,9924,5,2,2150,Escalators,-33.817572,151.004509,NULL
Darcy,681,21,Darcy Street,9924,5,2,2150,Lift,-33.817078,151.004916,NULL
Liverpool-Parramatta,679,3,Darcy Street,9924,5,2,2150,Stairs,-33.818198,151.005884,NULL
Station,677,3,Darcy Street,9924,5,2,2150,Stairs,-33.817878,151.006321,NULL
Darcy,683,21R,Darcy Street,9924,5,2,2150,Stairs,-33.816980,151.004680,NULL
Liverpool-Parramatta,680,NULL,Station Street East,9924,5,2,2150,Stairs,-33.817531,151.005003,NULL
Station W,359,21,Station Street West,9924,5,2,2150,Stairs,-33.823262,151.007463,NULL
Liverpool-Parramatta,678,10,Valentine Avenue,9924,5,2,2150,Lift,-33.818237,151.005929,NULL
Main,686,19,Railway Street,9944,5,2,2421,Stairs,-32.602370,151.614764,NULL
Joyce,690,152B,Pendle Way,10019,5,2,2145,Path,-33.801308,150.955850,NULL
Joyce,689,152B,Pendle Way,10019,5,2,2145,Ramp,-33.801352,150.955929,NULL
Wentworth,687,221,Wentworth Avenue,10019,5,2,2145,Ramp,-33.801676,150.957003,NULL
Wentworth,688,227,Wentworth Avenue,10019,5,2,2145,Stairs,-33.801271,150.956549,NULL
Yarrara,693,NULL,NULL,10024,5,2,2120,Path,-33.737715,151.072606,NULL
Yarrara,694,NULL,NULL,10024,5,2,2120,Stairs,-33.737723,151.072573,NULL
Railway,691,346,Pennant Hills Road,10024,5,2,2120,Stairs,-33.737930,151.072777,NULL
Railway,695,NULL,Railway Street,10024,5,2,2120,Ramp,-33.738161,151.072564,NULL
Railway,692,5,Ramsay Road,10024,5,2,2120,Lift,-33.737955,151.072626,NULL
Yarrara,696,5,Ramsay Road,10024,5,2,2120,Lift,-33.737865,151.072498,NULL
Jane,700,57,Great Western Highway,10031,5,2,2750,Lift,-33.750281,150.696433,NULL
Jane,699,57,Great Western Highway,10031,5,2,2750,Stairs,-33.750290,150.696471,NULL
Combewood,697,81,Lord Sheffield Circuit,10031,5,2,2750,Stairs,-33.749858,150.696576,NULL
Combewood,698,7,Station Street,10031,5,2,2750,Lift,-33.749851,150.696504,NULL
Jane,701,7,Station Street,10031,5,2,2750,Stairs,-33.750188,150.696196,NULL
Kareela,703,310,Kareela Road,10034,5,2,2579,Path,-34.672160,150.212086,NULL
Penrose,702,901,Penrose Road,10034,5,2,2579,Path,-34.672305,150.212274,NULL
Bridge,704,NULL,NULL,10035,5,2,2222,Stairs,-33.966081,151.088837,NULL
Bridge,707,5,Penshurst Street,10035,5,2,2222,Lift,-33.966097,151.088668,NULL
Laycock,705,10,The Strand,10035,5,2,2222,Ramp,-33.966332,151.088801,NULL
Laycock,706,10,The Strand,10035,5,2,2222,Stairs,-33.966319,151.088713,NULL
Trafalgar,708,3,Regent Street,10071,5,2,2049,Stairs,-33.894022,151.155767,NULL
Terminus,709,36,Terminus Street,10071,5,2,2049,Stairs,-33.893606,151.155541,NULL
Station,713,6,Campbell Street,10104,5,2,2571,Lift,-34.179211,150.612664,NULL
Prince,712,7,Campbell Street,10104,5,2,2571,Stairs,-34.179682,150.612704,NULL
Prince,710,7,Campbell Street,10104,5,2,2571,Stairs,-34.179648,150.612881,NULL
Station,711,7,Campbell Street,10104,5,2,2571,Stairs,-34.179278,150.612730,NULL
Kurrawa,714,NULL,NULL,10215,5,2,2250,Stairs,-33.446300,151.328526,NULL
Brisbane Water,716,47,Brisbane Water Drive,10215,5,2,2250,Ramp,-33.446213,151.328219,NULL
Brisbane Water,715,47,Brisbane Water Drive,10215,5,2,2250,Stairs,-33.446182,151.328264,NULL
Flinders,718,NULL,NULL,10307,5,2,2505,Stairs,-34.472979,150.887326,NULL
Old Port,717,LOT 1,Darcy Road,10307,5,2,2505,Ramp,-34.477188,150.902856,NULL
Five Island,230,NULL,Five Islands Road,10307,5,2,2505,Stairs,-34.467373,150.878272,NULL
Flinders,719,2,Flinders Street,10307,5,2,2505,Stairs,-34.473129,150.887041,NULL
Central,229,NULL,Unnamed Road,10307,5,2,2505,Stairs,-34.467080,150.879958,NULL
Victoria,420,NULL,Darlinghurst Road,10351,5,2,2011,Lift,-33.874269,151.222204,NULL
Victoria,421,NULL,Darlinghurst Road,10351,5,2,2011,Stairs,-33.874237,151.222195,NULL
Victoria,419,NULL,Darlinghurst Road,10351,5,2,2011,Stairs,-33.874031,151.222503,NULL
Punchbowl,720,715,Punchbowl Road,10413,5,2,2196,Stairs,-33.925252,151.055579,NULL
The Boulevarde,721,279A,The Boulevarde,10413,5,2,2196,Stairs,-33.925567,151.055571,NULL
Pacific,723,987,A1,10440,5,2,2073,Stairs,-33.744983,151.142198,NULL
Grandview,722,79,Grandview Street,10440,5,2,2073,Stairs,-33.744638,151.142273,NULL
Pyrmont Bridge,926,NULL,NULL,10444,5,2,2009,Path,-33.874241,151.194094,NULL
Harris,406,27A,Harvey Street,10444,5,2,2009,Ramp,-33.867262,151.192430,NULL
Harvey,407,27,Harvey Street,10444,5,2,2009,Stairs,-33.867162,151.192075,NULL
Miller,312,55,Miller Street,10444,5,2,2009,Path,-33.870463,151.192178,NULL
Darling,224,100,Murray Street,10444,5,2,2000,Ramp,-33.872864,151.198151,NULL
Pirrama,858,48A,Pirrama Road,10444,5,2,2009,Path,-33.867270,151.195709,NULL
Miller,313,1,Saunders Street,10444,5,2,2009,Path,-33.870768,151.191652,NULL
Murray,724,94,Union Street,10444,5,2,2009,Path,-33.869535,151.197707,NULL
Wattle,927,26,Wattle Street,10444,5,2,2009,Ramp,-33.875067,151.193538,NULL
Pearce,725,44,Pearce Road,10448,5,2,2763,Lift,-33.727310,150.886272,NULL
Pearce,726,46A,Pearce Road,10448,5,2,2763,Stairs,-33.727215,150.886217,NULL
Railway,727,23,Railway Road,10448,5,2,2763,Lift,-33.727431,150.886038,NULL
Railway,728,21,Railway Road,10448,5,2,2763,Stairs,-33.727214,150.885887,NULL
Gibbons,729,NULL,NULL,10581,5,2,2016,Path,-33.892029,151.199511,NULL
Lawson,730,5,Lawson Street,10581,5,2,2016,Path,-33.891563,151.198824,NULL
Amy,732,4,Amy Street,10609,5,2,2143,Path,-33.883351,151.024178,NULL
Park,734,401,Park Road,10609,5,2,2143,Ramp,-33.883246,151.023700,NULL
Park,733,401,Park Road,10609,5,2,2143,Stairs,-33.883115,151.023793,NULL
Marco,736,NULL,NULL,10640,5,2,2212,Lift,-33.952358,151.015319,NULL
Marco,737,NULL,NULL,10640,5,2,2212,Stairs,-33.952311,151.015277,NULL
Blamey,738,4,Revesby Place,10640,5,2,2212,Lift,-33.952736,151.015232,NULL
Blamey,735,2,Revesby Place,10640,5,2,2212,Stairs,-33.952707,151.015486,NULL
Blaxland,740,NULL,Blaxland Road,10649,5,2,2138,Lift,-33.830649,151.087223,NULL
Blaxland,739,NULL,Blaxland Road,10649,5,2,2138,Stairs,-33.830676,151.087236,NULL
Walker,741,4,Walker Street,10649,5,2,2138,Lift,-33.830456,151.086876,NULL
Walker,742,4,Walker Street,10649,5,2,2138,Stairs,-33.830640,151.086821,NULL
Bourke,268,32,Bourke Street,10662,5,2,2753,Ramp,-33.601803,150.758829,NULL
Bourke,269,32,Bourke Street,10662,5,2,2753,Stairs,-33.601745,150.758729,NULL
E Market,744,21,East Market Street,10662,5,2,2753,Ramp,-33.598854,150.752253,NULL
E Market,743,21,East Market Street,10662,5,2,2753,Stairs,-33.598771,150.752309,NULL
Garfield,746,NULL,NULL,10709,5,2,2765,Path,-33.679856,150.860520,NULL
Riverstone,747,1,Riverstone Parade,10709,5,2,2765,Path,-33.679051,150.860440,NULL
Garfield,745,86,West Parade,10709,5,2,2765,Path,-33.679768,150.860729,NULL
Belmore,749,NULL,NULL,10714,5,2,2210,Stairs,-33.951600,151.052549,NULL
Belmore,748,220,Belmore Road,10714,5,2,2210,Path,-33.951470,151.052562,NULL
Geeves,751,NULL,NULL,10744,5,2,2216,Lift,-33.952487,151.136861,NULL
Geeves,750,NULL,NULL,10744,5,2,2216,Stairs,-33.952303,151.136987,NULL
Railway,753,88,Railway Street,10744,5,2,2216,Ramp,-33.951910,151.136441,NULL
Railway,754,102,Railway Street,10744,5,2,2216,Stairs,-33.952210,151.136280,NULL
Geeves,752,1A,Tramway Arcade,10744,5,2,2216,Stairs,-33.952580,151.136844,NULL
Beames,755,NULL,NULL,10797,5,2,2766,Stairs,-33.771882,150.844461,NULL
North,756,NULL,NULL,10797,5,2,2766,Stairs,-33.771486,150.844284,NULL
Rooty Hill North,758,2A,Rooty Hill Road North,10797,5,2,2766,Ramp,-33.771248,150.843872,NULL
Beames,757,1,Rooty Hill Road South,10797,5,2,2766,Ramp,-33.772013,150.844247,NULL
James Ruse,761,116,James Ruse Drive,10821,5,2,2142,Ramp,-33.823084,151.021815,NULL
James Ruse,760,116,James Ruse Drive,10821,5,2,2142,Stairs,-33.823220,151.022210,NULL
James Ruse,759,120,James Ruse Drive,10821,5,2,2142,Stairs,-33.823038,151.022231,NULL
Pacific,763,NULL,NULL,10833,5,2,2069,Ramp,-33.784679,151.177749,NULL
Hill,762,43,Hill Street,10833,5,2,2069,Ramp,-33.784348,151.177866,NULL
Wilson,367,126,Wilson Parade,NULL,5,2,2233,Path,-34.087924,151.008429,NULL
Wilson,368,126,Wilson Parade,NULL,5,2,2233,Ramp,-34.087939,151.008414,NULL
Brodie,767,5,Brodie Street,10939,5,2,2116,Path,-33.810156,151.029479,NULL
Station,807,113b,Station Street,NULL,5,2,2760,Lift,-33.762350,150.775057,NULL
Railway,769,371,Lawrence Hargrave Drive,11061,5,2,2515,Stairs,-34.265678,150.965496,NULL
Railway,770,1,Railway Avenue,11061,5,2,2515,Stairs,-34.265516,150.965194,NULL
Railway,773,NULL,NULL,11067,5,2,2762,Stairs,-33.704187,150.873932,NULL
Railway,772,NULL,Railway Terrace,11067,5,2,2762,Lift,-33.704438,150.874017,NULL
Railway,771,NULL,Railway Terrace,11067,5,2,2762,Path,-33.704835,150.874238,NULL
Bridge,774,NULL,Siding Terrace,11067,5,2,2762,Lift,-33.704544,150.873610,NULL
Bridge,775,NULL,Siding Terrace,11067,5,2,2762,Stairs,-33.704317,150.873526,NULL
Susan,776,109,Susan Street,11069,5,2,2337,Path,-32.046706,150.867072,NULL
Helen,777,NULL,NULL,11127,5,2,2162,Lift,-33.885162,151.011841,NULL
Helen,779,44A,Helen Street,11127,5,2,2162,Stairs,-33.885160,151.011671,NULL
Wellington,778,141,Wellington Road,11127,5,2,2162,Lift,-33.885496,151.011797,NULL
Wellington,780,143,Wellington Road,11127,5,2,2162,Stairs,-33.885432,151.011622,NULL
Prospect,783,NULL,NULL,11149,5,2,2147,Lift,-33.774071,150.936089,NULL
Prospect,784,NULL,NULL,11149,5,2,2147,Ramp,-33.774102,150.935925,NULL
The Hills,782,47,Boomerang Place,11149,5,2,2147,Lift,-33.774557,150.936172,NULL
The Hills,785,53,Boomerang Place,11149,5,2,2147,Ramp,-33.774520,150.935432,NULL
Prospect,781,198,Prospect Highway,11149,5,2,2147,Stairs,-33.774105,150.936191,NULL
Piper,786,NULL,Piper Drive,11201,5,2,2529,Lift,-34.591251,150.844818,NULL
Piper,788,NULL,Piper Drive,11201,5,2,2529,Lift,-34.591225,150.844669,NULL
Piper,787,1,Piper Drive,11201,5,2,2529,Stairs,-34.591307,150.844801,NULL
Piper,789,1,Piper Drive,11201,5,2,2529,Stairs,-34.591287,150.844651,NULL
Astra,768,1,Astra Street,11228,5,2,2307,Stairs,-32.872794,151.702801,NULL
Munro,790,4,Munro Lane,11260,5,2,2330,Ramp,-32.571960,151.165682,NULL
Munro,792,14,Munro Street,11260,5,2,2330,Path,-32.571833,151.165486,NULL
Munro,791,18,Munro Street,11260,5,2,2330,Ramp,-32.571853,151.165540,NULL
Le Darcy,375,14,Anzac Street,11391,5,2,2320,Ramp,-32.741972,151.564195,NULL
Recycling,498,LOT 1,Springhill Road,11488,5,2,2500,Stairs,-34.454811,150.875214,NULL
Station,795,NULL,NULL,11510,5,2,2777,Ramp,-33.698964,150.563304,NULL
Macquarie,794,248,Macquarie Road,11510,5,2,2777,Ramp,-33.699361,150.563522,NULL
Macquarie,793,238,Macquarie Road,11510,5,2,2777,Stairs,-33.699189,150.563697,NULL
Herbert,805,NULL,NULL,11545,5,2,2065,Lift,-33.822430,151.193367,NULL
Herbert,802,NULL,NULL,11545,5,2,2065,Lift,-33.822323,151.193647,NULL
Herbert,804,NULL,NULL,11545,5,2,2065,Stairs,-33.822462,151.193432,NULL
Sergeants,800,NULL,NULL,11545,5,2,2065,Stairs,-33.822246,151.194762,NULL
Herbert,803,3,Herbert Street,11545,5,2,2065,Stairs,-33.822316,151.193608,NULL
Sergeants,801,1,Sergeants Lane,11545,5,2,2065,Lift,-33.822223,151.194760,NULL
May,810,1,Goodsell Street,11554,5,2,2044,Path,-33.907453,151.180861,NULL
Trafalgar,813,110,Cambridge Street,11574,5,2,2048,Ramp,-33.894676,151.164157,NULL
Douglas,812,140,Percival Road,11574,5,2,2048,Ramp,-33.894164,151.164204,NULL
Railway,814,NULL,Wodi Wodi Walking Track,11580,5,2,2508,Stairs,-34.226183,150.981234,NULL
Railway,815,NULL,Wodi Wodi Walking Track,11580,5,2,2508,Stairs,-34.226144,150.981004,NULL
Strathfield,818,NULL,NULL,11670,5,2,2135,Ramp,-33.872208,151.094283,NULL
Albert,819,1,Albert Road,11670,5,2,2135,Ramp,-33.871859,151.093829,NULL
Everton,816,39,Everton Road,11670,5,2,2135,Lift,-33.871468,151.094603,NULL
Everton,817,39,Everton Road,11670,5,2,2135,Stairs,-33.871344,151.094481,NULL
Parramatta,840,739,A22,11715,5,2,2130,Lift,-33.889566,151.145176,NULL
Parramatta,842,743,A22,11715,5,2,2130,Stairs,-33.889630,151.145083,NULL
Carlton,821,60,Carlton Crescent,11715,5,2,2130,Lift,-33.890532,151.138907,NULL
Carlton,824,60,Carlton Crescent,11715,5,2,2130,Ramp,-33.890431,151.138615,NULL
Carlton,823,60,Carlton Crescent,11715,5,2,2130,Stairs,-33.890441,151.138641,NULL
Smith,467,16,Flour Mill Way,11715,5,2,2130,Path,-33.893786,151.143342,NULL
Parramatta,841,743,Great Western Highway,11715,5,2,2130,Lift,-33.889906,151.145104,NULL
Parramatta,843,743,Great Western Highway,11715,5,2,2130,Stairs,-33.889868,151.145073,NULL
Grosvenor,822,30,Grosvenor Crescent,11715,5,2,2130,Lift,-33.890106,151.138752,NULL
Grosvenor,820,30,Grosvenor Crescent,11715,5,2,2130,Stairs,-33.890159,151.138944,NULL
Elizabeth,164,2,Chalmers Street,11763,5,2,2010,Lift,-33.883710,151.207899,5
Elizabeth,165,2,Chalmers Street,11763,5,2,2010,Stairs,-33.883785,151.207862,5
Elizabeth,163,308,Elizabeth Street,11763,5,2,2010,Ramp,-33.883521,151.207956,4
Chalmers,170,17,Randle Street,11763,5,2,2010,Lift,-33.885412,151.206847,6
East,825,NULL,NULL,11767,5,2,2232,Lift,-34.031570,151.057432,NULL
East,826,NULL,NULL,11767,5,2,2232,Path,-34.031556,151.057342,NULL
East,828,NULL,NULL,11767,5,2,2232,Ramp,-34.031834,151.056909,NULL
East,827,NULL,NULL,11767,5,2,2232,Stairs,-34.031834,151.056909,NULL
Gleeson,829,NULL,NULL,11804,5,2,2044,Lift,-33.914911,151.166101,NULL
Gleeson,830,NULL,NULL,11804,5,2,2044,Path,-33.914863,151.166047,NULL
George,872,NULL,NULL,11805,5,2,2000,Lift,-33.873894,151.207020,2
Carrington,990,NULL,NULL,11805,5,2,2000,Lift,-33.865705,151.206102,1
York,993,NULL,NULL,11805,5,2,2000,Path,-33.865601,151.205520,3
Elizabeth,604,NULL,NULL,11805,5,2,2000,Stairs,-33.874934,151.209861,NULL
George,873,NULL,NULL,11805,5,2,2000,Stairs,-33.873948,151.207008,2
Phillip,527,NULL,NULL,11805,5,2,2000,Stairs,-33.867961,151.211355,2
Elizabeth,528,NULL,NULL,11805,5,2,2000,Stairs,-33.867709,151.210828,5
York,991,NULL,NULL,11805,5,2,2000,Stairs,-33.865662,151.205972,3
Carrington,987,NULL,NULL,11805,5,2,2000,Stairs,-33.865539,151.206314,1
Alfred,195,NULL,NULL,11805,5,2,2000,Stairs,-33.861463,151.210794,NULL
Alfred,200,NULL,NULL,11805,5,2,2000,Stairs,-33.861314,151.210659,NULL
Alfred,197,1,Alfred Street,11805,5,2,2000,Escalators,-33.861439,151.210745,NULL
Alfred,204,2,Alfred Street,11805,5,2,2000,Escalators,-33.861399,151.210328,NULL
Alfred,196,30,Alfred Street,11805,5,2,2000,Escalators,-33.861277,151.210773,NULL
Alfred,203,30,Alfred Street,11805,5,2,2000,Escalators,-33.861259,151.210565,NULL
Alfred,199,1,Alfred Street,11805,5,2,2000,Lift,-33.861466,151.210712,NULL
Alfred,198,30,Alfred Street,11805,5,2,2000,Lift,-33.861243,151.210734,NULL
Alfred,202,1,Alfred Street,11805,5,2,2000,Stairs,-33.861380,151.210615,NULL
Alfred,201,5,Alfred Street,11805,5,2,2000,Stairs,-33.861312,151.210623,NULL
Carrington,989,9,Carrington Street,11805,5,2,2000,Path,-33.865722,151.206269,1
Carrington,988,9,Carrington Street,11805,5,2,2000,Stairs,-33.865833,151.206282,1
Clarence,995,50,Clarence Street,11805,5,2,2000,Lift,-33.865729,151.205079,4
Clarence,996,34,Clarence Street,11805,5,2,2000,Path,-33.865643,151.205004,4
Clarence,997,32,Clarence Street,11805,5,2,2000,Stairs,-33.865628,151.204800,4
Liverpool,609,299,Elizabeth Street,11805,5,2,2000,Escalators,-33.876712,151.209218,NULL
Elizabeth,608,201-217,Elizabeth Street,11805,5,2,2000,Escalators,-33.874827,151.209529,NULL
Elizabeth,798,118,Elizabeth Street,11805,5,2,2000,Lift,-33.870678,151.210484,NULL
Liverpool,610,299,Elizabeth Street,11805,5,2,2000,Stairs,-33.876698,151.209194,NULL
Elizabeth,606,287,Elizabeth Street,11805,5,2,2000,Stairs,-33.876529,151.209806,NULL
Elizabeth,799,118,Elizabeth Street,11805,5,2,2000,Stairs,-33.870749,151.210448,NULL
Elizabeth,529,39,Elizabeth Street,11805,5,2,2000,Stairs,-33.867949,151.210511,6
George,876,485,George Street,11805,5,2,2000,Stairs,-33.874166,151.206667,4
George,877,483,George Street,11805,5,2,2000,Stairs,-33.873704,151.206619,5
George,871,552,George Street,11805,5,2,2000,Stairs,-33.873576,151.207064,2
George,874,63,George Street,11805,5,2,2000,Stairs,-33.873243,151.206718,5
George,870,NULL,George Street,11805,5,2,2000,Stairs,-33.873171,151.207125,2
George,875,455,George Street,11805,5,2,2000,Stairs,-33.873002,151.206696,5
York,992,289-307,George Street,11805,5,2,2000,Stairs,-33.865756,151.205963,3
Jamison,994,1B,Jamison Street,11805,5,2,2000,Path,-33.864453,151.205316,NULL
Napoleon,999,261,Kent Street,11805,5,2,2000,Lift,-33.865341,151.203967,NULL
Elizabeth,605,149,Liverpool Street,11805,5,2,2000,Escalators,-33.876913,151.209825,NULL
Elizabeth,607,149,Liverpool Street,11805,5,2,2000,Lift,-33.876591,151.209734,NULL
Macquarie,525,65,Martin Place,11805,5,2,2000,Stairs,-33.867962,151.211624,1
Elizabeth,530,48,Martin Place,11805,5,2,2000,Stairs,-33.867730,151.210204,7
Napoleon,998,15A,Napoleon Street,11805,5,2,2000,Path,-33.865246,151.203970,NULL
Phillip,526,158,Phillip Street,11805,5,2,2000,Lift,-33.867725,151.211419,4
Darling,294,270,Pyrmont Street,11805,5,2,2000,Ramp,-33.876778,151.199475,NULL
James,797,2,Saint James Road,11805,5,2,2000,Ramp,-33.870033,151.211289,NULL
James,796,2,Saint James Road,11805,5,2,2000,Stairs,-33.869927,151.211498,NULL
Kent,878,NULL,Unnamed Road,11805,5,2,2000,Path,-33.873462,151.205675,5
Dawn Fraser,658,NULL,NULL,NULL,5,2,2127,Path,-33.846869,151.069215,NULL
Dawn Fraser,655,NULL,NULL,NULL,5,2,2127,Path,-33.846785,151.069456,NULL
Murray Rose,652,NULL,NULL,NULL,5,2,2127,Stairs,-33.846173,151.069828,NULL
Dawn Fraser,651,8,Dawn Fraser Avenue,NULL,5,2,2127,Path,-33.846566,151.070046,NULL
Dawn Fraser,649,8,Dawn Fraser Avenue,NULL,5,2,2127,Path,-33.846478,151.070287,NULL
Dawn Fraser,653,10,Dawn Fraser Avenue,NULL,5,2,2127,Stairs,-33.846706,151.069556,NULL
Murray Rose,657,"East, 11",Murray Rose Avenue,NULL,5,2,2127,Lift,-33.846394,151.069248,NULL
Murray Rose,650,7,Murray Rose Avenue,NULL,5,2,2127,Path,-33.846086,151.070081,NULL
Murray Rose,654,11,Murray Rose Avenue,NULL,5,2,2127,Ramp,-33.846343,151.069495,NULL
Murray Rose,659,"East, 11",Murray Rose Avenue,NULL,5,2,2127,Stairs,-33.846479,151.069006,NULL
Murray Rose,656,11,Murray Rose Avenue,NULL,5,2,2127,Stairs,-33.846393,151.069391,NULL
Park,648,1,Park Street,NULL,5,2,2127,Path,-33.846111,151.070683,NULL
Showground,660,1,Showground Road,NULL,5,2,2127,Path,-33.846984,151.068271,NULL
George,831,44A,George Street,11838,5,2,2573,Path,-34.223587,150.590241,NULL
Pitt,832,41,Pitt Street,11838,5,2,2573,Path,-34.223465,150.589830,NULL
Railway,833,4,Weir Road,11872,5,2,2579,Path,-34.718375,150.086092,NULL
Woodberry,835,9,Woodberry Road,11999,5,2,2322,Stairs,-32.808895,151.669372,NULL
Woodberry,834,9,Woodberry Road,11999,5,2,2322,Stairs,-32.808820,151.669463,NULL
Brisbane Water,836,NULL,Brisbane Water Drive,12004,5,2,2250,Ramp,-33.450839,151.318815,NULL
Brisbane Water,837,NULL,Brisbane Water Drive,12004,5,2,2250,Stairs,-33.450882,151.318787,NULL
Glenrock,838,8,Kateena Avenue,12004,5,2,2250,Ramp,-33.450773,151.318740,NULL
Glenrock,839,4,Kateena Avenue,12004,5,2,2250,Stairs,-33.450949,151.318344,NULL
Sturt,846,NULL,NULL,12046,5,2,2117,Path,-33.794006,151.041781,NULL
Sturt,847,NULL,NULL,12046,5,2,2117,Ramp,-33.794249,151.041524,NULL
Adderton,849,55A,Adderton Road,12046,5,2,2117,Ramp,-33.794021,151.041263,NULL
Adderton,850,55A,Adderton Road,12046,5,2,2117,Stairs,-33.794115,151.041195,NULL
Sturt,848,33,Sturt Street,12046,5,2,2117,Path,-33.794570,151.041383,NULL
Griffith,852,24,Griffiths Street,12052,5,2,2044,Stairs,-33.923947,151.156750,NULL
Griffith,851,14,Griffiths Street,12052,5,2,2044,Stairs,-33.923691,151.156798,NULL
William,856,NULL,NULL,12070,5,2,2284,Path,-32.962727,151.603926,NULL
Railway,857,127,Railway Street,12070,5,2,2284,Stairs,-32.962162,151.603641,NULL
William,855,NULL,William Street,12070,5,2,2284,Ramp,-32.962768,151.604150,NULL
Station,859,NULL,NULL,12196,5,2,2515,Stairs,-34.317860,150.919375,NULL
Railway,861,4,Railway Parade,12196,5,2,2515,Path,-34.317883,150.918865,NULL
Railway,862,4,Railway Parade,12196,5,2,2515,Stairs,-34.317958,150.918851,NULL
Station,860,7,Station Street,12196,5,2,2515,Lift,-34.317997,150.919252,NULL
Railway,864,NULL,NULL,12214,5,2,2120,Stairs,-33.732118,151.078332,NULL
Railway,863,288,Pennant Hills Road,12214,5,2,2120,Path,-33.732079,151.078373,NULL
The Esplanade,865,86,The Esplanade,12214,5,2,2120,Stairs,-33.731809,151.078118,NULL
Karuah,867,17,Karuah Street,12216,5,2,2322,Lift,-32.783561,151.639955,NULL
Karuah,866,17,Karuah Street,12216,5,2,2322,Stairs,-32.783573,151.639993,NULL
Wentworth,868,40,Cooyong Crescent,12366,5,2,2146,Ramp,-33.786999,150.951607,NULL
Portice,869,11,Portico Parade,12366,5,2,2146,Ramp,-33.787142,150.951166,NULL
Towradgi,880,NULL,NULL,12443,5,2,2518,Ramp,-34.384126,150.901358,NULL
Towradgi,879,NULL,NULL,12443,5,2,2518,Ramp,-34.384084,150.901667,NULL
Bryant,881,NULL,Bryant Drive,12514,5,2,2259,Ramp,-33.307745,151.420420,NULL
Bryant,882,NULL,Bryant Drive,12514,5,2,2259,Stairs,-33.307745,151.420420,NULL
Pacific,883,86,Pacific Highway,12514,5,2,2259,Ramp,-33.307474,151.420075,NULL
Pacific,884,NULL,Pacific Highway,12514,5,2,2259,Stairs,-33.307677,151.420038,NULL
William,886,NULL,Rohini St,12572,5,2,2074,Path,-33.732877,151.128659,NULL
Rohini,885,2a,Rohini Street,12572,5,2,2074,Path,-33.732589,151.129097,NULL
Reede,887,128,Turrella Street,12575,5,2,2205,Stairs,-33.929774,151.140428,NULL
Pyrmont,295,456B,Harris Street,12638,5,2,2007,Stairs,-33.876787,151.199250,NULL
Berkeley,888,NULL,NULL,12647,5,2,2526,Stairs,-34.455128,150.846083,NULL
Berkeley,889,NULL,NULL,12647,5,2,2526,Stairs,-34.454803,150.845495,NULL
Great Western,891,NULL,NULL,12790,5,2,2777,Ramp,-33.703855,150.584019,NULL
Great Western,890,NULL,NULL,12790,5,2,2777,Stairs,-33.703882,150.584080,NULL
Great Western,892,4,The Valley Road,12790,5,2,2777,Stairs,-33.704148,150.583689,NULL
Christina,453,NULL,Christina Road,12835,5,2,2163,Ramp,-33.881263,150.984962,NULL
Monier,452,2,Monier Square,12835,5,2,2163,Ramp,-33.881894,150.985102,NULL
Villawood,895,NULL,River Avenue,12835,5,2,2163,Stairs,-33.880921,150.977362,NULL
River,896,101,River Avenue,12835,5,2,2163,Stairs,-33.880740,150.977347,NULL
Bandon,897,100,Bandon Road,NULL,5,2,2765,Ramp,-33.650188,150.851063,NULL
Redleaf,898,1-5,Railway Avenue,12881,5,2,2076,Stairs,-33.718001,151.117518,NULL
Alexandria,899,49,Alexandria Parade,12888,5,2,2077,Path,-33.710286,151.105246,NULL
Waitara,900,12,Waitara Avenue,12888,5,2,2077,Stairs,-33.710656,151.104915,NULL
Wallarobba Brookfield,901,1428,Dungog Road,12943,5,2,2420,Ramp,-32.496150,151.695692,NULL
Eucalyptus,902,9A,Eucalyptus Circuit,13051,5,2,2304,Ramp,-32.886983,151.711187,NULL
Platt,904,NULL,NULL,13055,5,2,2298,Stairs,-32.902103,151.731215,NULL
Warnervale,908,2,Albert Warner Drive,13091,5,2,2259,Path,-33.247384,151.449136,NULL
Warnervale,909,2,Albert Warner Drive,13091,5,2,2259,Path,-33.247132,151.448845,NULL
Heydon,911,19,Heydon Avenue,13126,5,2,2074,Path,-33.724541,151.121722,NULL
Warrawee,910,1,Warrawee Avenue,13126,5,2,2074,Path,-33.724393,151.122039,NULL
Great Western,915,285,Great Western Highway,13144,5,2,2774,Ramp,-33.722068,150.602657,NULL
Great Western,914,NULL,Great Western Highway,13144,5,2,2774,Ramp,-33.721592,150.602768,NULL
Great Western,916,289,Great Western Highway,13144,5,2,2774,Stairs,-33.722044,150.602565,NULL
Great Western,913,NULL,Great Western Highway,13144,5,2,2774,Stairs,-33.721589,150.602781,NULL
Railway,912,58,Railway Parade,13144,5,2,2774,Stairs,-33.721326,150.602951,NULL
Remembrance,919,NULL,Remembrance Avenue,13160,5,2,2170,Lift,-33.913246,150.934995,NULL
Remembrance,920,NULL,Remembrance Avenue,13160,5,2,2170,Stairs,-33.913473,150.934961,NULL
Warwick,918,NULL,Warwick Street,13160,5,2,2170,Lift,-33.913405,150.935276,NULL
Warwick,917,NULL,Warwick Street,13160,5,2,2170,Stairs,-33.913180,150.935324,NULL
Kooraban,921,3,McKell Avenue,13172,5,2,2233,Ramp,-34.135172,150.994605,NULL
Botany,339,297,Botany Road,13181,5,2,2017,Stairs,-33.905818,151.203031,NULL
Bay,922,NULL,NULL,13231,5,2,2060,Path,-33.837567,151.197468,NULL
Bay,923,94A,Bay Road,13231,5,2,2060,Path,-33.837610,151.197336,NULL
Railway,924,8,Railway Parade,13313,5,2,2782,Stairs,-33.709329,150.376489,NULL
Station,925,22,Station Street,13313,5,2,2782,Stairs,-33.709525,150.376119,NULL
The Kingsway,931,NULL,NULL,13314,5,2,2145,Ramp,-33.807068,150.971827,NULL
The Kingsway,929,1,The Kingsway,13314,5,2,2145,Stairs,-33.807252,150.972304,NULL
Wentworth,930,83,Wentworth Avenue,13314,5,2,2145,Ramp,-33.806676,150.971932,NULL
Wentworth,928,79,Wentworth Avenue,13314,5,2,2145,Stairs,-33.806868,150.972524,NULL
Railway,935,10,Kazanis Court,13330,5,2,2747,Lift,-33.759207,150.757401,NULL
Victoria,934,10,Kazanis Court,13330,5,2,2747,Lift,-33.759037,150.757445,NULL
Victoria,932,10,Kazanis Court,13330,5,2,2747,Stairs,-33.759049,150.757566,NULL
Railway,933,18,Railway Street,13330,5,2,2747,Stairs,-33.759249,150.757531,NULL
Railway,937,2D,Ryedale Road,13395,5,2,2114,Lift,-33.807471,151.090403,NULL
West,939,2D,Ryedale Road,13395,5,2,2114,Ramp,-33.807044,151.090083,NULL
Railway,936,2D,Ryedale Road,13395,5,2,2114,Stairs,-33.807466,151.090579,NULL
West,938,28,West Parade,13395,5,2,2114,Ramp,-33.806875,151.090157,NULL
West,940,1-55,West Parade,13395,5,2,2114,Stairs,-33.807467,151.089960,NULL
Alexandria,944,27,Alexandra Avenue,13428,5,2,2145,Ramp,-33.808641,150.987657,NULL
Alexandria,942,27,Alexandra Avenue,13428,5,2,2145,Stairs,-33.808708,150.987870,NULL
Railway,943,2,Railway Parade,13428,5,2,2145,Ramp,-33.808190,150.987715,NULL
Railway,941,25,Railway Parade,13428,5,2,2145,Stairs,-33.808361,150.988187,NULL
Hannell,619,10,Dangar Street,13517,5,2,2293,Path,-32.924128,151.759867,NULL
Hannell,620,27,Station Street,13517,5,2,2293,Path,-32.924432,151.759635,NULL
Charles,621,27,Station Street,13517,5,2,2293,Path,-32.923917,151.759388,NULL
King Georges,945,89,King Georges Road,13544,5,2,2195,Ramp,-33.922781,151.068062,NULL
King Georges,946,89,King Georges Road,13544,5,2,2195,Ramp,-33.922704,151.068018,NULL
George,947,6,Church Street,13642,5,2,2756,Path,-33.613623,150.811105,NULL
Cox,948,21,Cox Street,13642,5,2,2756,Path,-33.612927,150.809029,NULL
Railway,949,57-61,Railway Parade,13653,5,2,2579,Path,-34.692335,150.158381,NULL
Sydney,950,9,Wingello Street,13653,5,2,2579,Path,-34.692016,150.158205,NULL
Dungog,951,NULL,Dungog Road,13682,5,2,2420,Ramp,-32.462926,151.742468,NULL
Brodie Spark,952,NULL,NULL,13725,5,2,2205,Stairs,-33.928671,151.154443,NULL
Brodie Spark,953,NULL,Brodie Spark Drive,13725,5,2,2205,Lift,-33.928684,151.154358,NULL
Discovery Point,954,2,Discovery Point Place,13725,5,2,2205,Lift,-33.928849,151.153891,NULL
Discovery Point,955,2,Discovery Point Place,13725,5,2,2205,Stairs,-33.928829,151.153842,NULL
Crown,959,NULL,NULL,13731,5,2,2500,Lift,-34.426456,150.888434,NULL
Crown,960,NULL,NULL,13731,5,2,2500,Lift,-34.426425,150.888220,NULL
Railway Staiton,963,NULL,NULL,13731,5,2,2500,Ramp,-34.426791,150.887817,NULL
Crown,961,306A,Crown Street,13731,5,2,2500,Path,-34.425872,150.888212,NULL
Crown,956,335,Princes Highway,13731,5,2,2500,Path,-34.425827,150.888638,NULL
Railway Staiton,962,1,Railway Station Square,13731,5,2,2500,Path,-34.427208,150.887947,NULL
Station,958,8,Station Street,13731,5,2,2500,Path,-34.426987,150.888436,NULL
Station,957,8,Station Street,13731,5,2,2500,Stairs,-34.426733,150.888559,NULL
Milner,964,2B,Milner Crescent,13733,5,2,2065,Path,-33.831590,151.192595,NULL
Milray,967,43,Milray Avenue,13733,5,2,2065,Path,-33.831467,151.191573,NULL
Shirley,965,31,Shirley Road,13733,5,2,2065,Ramp,-33.832459,151.192182,NULL
Shirley,966,1,Telopea Street,13733,5,2,2065,Path,-33.832674,151.191792,NULL
Morrison,968,NULL,NULL,13741,5,2,2515,Stairs,-34.275453,150.953675,NULL
Morrison,969,119,Morrison Avenue,13741,5,2,2515,Stairs,-34.275304,150.953508,NULL
Wondabyne Wharf,970,NULL,Unnamed Road,13756,5,2,2256,Ramp,-33.492021,151.257148,NULL
Great Western,973,56,Great Western Highway,13801,5,2,2778,Ramp,-33.735267,150.480885,NULL
Great Western,972,21,Railway Parade,13801,5,2,2778,Ramp,-33.735468,150.481841,NULL
Railway,971,19,Railway Parade,13801,5,2,2778,Stairs,-33.735751,150.482196,NULL
Swan,975,24,Denman Avenue,13864,5,2,2230,Lift,-34.047448,151.143701,NULL
Swan,974,24,Denman Avenue,13864,5,2,2230,Stairs,-34.047412,151.143762,NULL
Swan,977,1,Panorama Avenue,13864,5,2,2230,Lift,-34.047656,151.143584,NULL
Swan,976,1,Panorama Avenue,13864,5,2,2230,Stairs,-34.047698,151.143648,NULL
Park,980,NULL,NULL,13885,5,2,2517,Ramp,-34.349329,150.915110,NULL
Park,978,18,Park Road,13885,5,2,2517,Ramp,-34.349393,150.915389,NULL
Railway,979,1A,Railway Parade,13885,5,2,2517,Stairs,-34.349561,150.915360,NULL
Blackwall,981,35-39,Blackwall Road,13930,5,2,2256,Path,-33.485973,151.324352,NULL
Railway,983,25,Railway Street,13930,5,2,2256,Lift,-33.485857,151.323384,NULL
Railway,982,9,Railway Street,13930,5,2,2256,Ramp,-33.485273,151.323725,NULL
Railway,984,44,Railway Street,13930,5,2,2256,Stairs,-33.485978,151.323215,NULL
Wyee,985,NULL,NULL,13985,5,2,2259,Ramp,-33.179840,151.487240,NULL
Gorokan,986,16,Gorokan Road,13985,5,2,2259,Stairs,-33.180164,151.486856,NULL
Howarth,1001,47,Howarth Street,14006,5,2,2259,Lift,-33.285332,151.425549,NULL
Howarth,1000,51,Howarth Street,14006,5,2,2259,Stairs,-33.285083,151.425599,NULL
Pacific,1002,72,Pacific Highway,14006,5,2,2259,Lift,-33.285249,151.425220,NULL
Pacific,1003,84,Pacific Highway,14006,5,2,2259,Stairs,-33.285322,151.425158,NULL
Hume,1004,NULL,NULL,14026,5,2,2199,Path,-33.907331,151.024676,NULL
Railway,1008,39,Nelson Road,14181,5,2,2161,Ramp,-33.865029,150.970716,NULL
Railway,1007,38,Nelson Road,14181,5,2,2161,Stairs,-33.864988,150.970808,NULL
Nelson,1006,33,Nelson Road,14181,5,2,2161,Stairs,-33.864620,150.970945,NULL
Railway,1005,NULL,Railway Street,14181,5,2,2161,Stairs,-33.864882,150.971040,NULL
Old Hume,1009,40,Old Hume Highway,14191,5,2,2575,Path,-34.371592,150.543448,NULL
Botany,338,NULL,NULL,14265,5,2,2017,Stairs,-33.905966,151.203077,NULL
